{"type":"FeatureCollection","features":[{"type":"Feature","properties":{"name":"Candlestick Point"},"geometry":{"type":"Polygon","coordinates":[[[-122.38339,37.72034],[-122.38325,37.72029],[-122.3832,37.7201],[-122.38176,37.71936],[-122.38129,37.71878],[-122.38038,37.7187],[-122.38019,37.71851],[-122.3797,37.71835],[-122.37908,37.71778],[-122.37745,37.71696],[-122.37613,37.71611],[-122.3762,37.71586],[-122.37668,37.71529],[-122.37664,37.71522],[-122.37711,37.71475],[-122.37734,37.71435],[-122.37888,37.71311],[-122.37972,37.71177],[-122.38001,37.71156],[-122.38012,37.71108],[-122.38005,37.71062],[-122.37937,37.71029],[-122.37902,37.71001],[-122.37846,37.70929],[-122.37832,37.70882],[-122.37792,37.7086],[-122.37773,37.70858],[-122.37685,37.70891],[-122.37639,37.70964],[-122.376,37.70969],[-122.37559,37.70959],[-122.37461,37.70905],[-122.37438,37.70877],[-122.37441,37.70865],[-122.37473,37.7085],[-122.37603,37.70839],[-122.37941,37.70842],[-122.38042,37.70878],[-122.38176,37.70886],[-122.38226,37.70907],[-122.38453,37.7093],[-122.38602,37.71],[-122.38681,37.70976],[-122.38684,37.70966],[-122.38736,37.70938],[-122.38807,37.70867],[-122.38875,37.70893],[-122.3897,37.70961],[-122.38996,37.70956],[-122.39054,37.70919],[-122.39149,37.7097],[-122.39207,37.70929],[-122.39228,37.709],[-122.39317,37.7084],[-122.39499,37.7084],[-122.39566,37.71136],[-122.39604,37.71239],[-122.39723,37.71406],[-122.39354,37.71849],[-122.39109,37.71726],[-122.38944,37.71556],[-122.38876,37.71466],[-122.38842,37.71506],[-122.38797,37.71538],[-122.38816,37.716],[-122.38813,37.7163],[-122.38791,37.71633],[-122.38674,37.71757],[-122.38619,37.71726],[-122.38409,37.71967],[-122.38339,37.72034]]]}},{"type":"Feature","properties":{"name":"Pine Lake Park"},"geometry":{"type":"Polygon","coordinates":[[[-122.48943,37.73756],[-122.48907,37.7372],[-122.48858,37.73697],[-122.48573,37.7367],[-122.48502,37.73701],[-122.48282,37.73742],[-122.48239,37.73741],[-122.48167,37.73706],[-122.47546,37.73734],[-122.47529,37.73482],[-122.4794,37.73473],[-122.49135,37.7342],[-122.49132,37.73383],[-122.49384,37.73372],[-122.49405,37.73664],[-122.49354,37.73671],[-122.49222,37.73714],[-122.49157,37.73727],[-122.49106,37.73724],[-122.49086,37.73752],[-122.49044,37.73775],[-122.48995,37.73778],[-122.48943,37.73756]]]}},{"type":"Feature","properties":{"name":"Balboa Terrace"},"geometry":{"type":"Polygon","coordinates":[[[-122.46451,37.73221],[-122.46523,37.73151],[-122.46544,37.73009],[-122.46636,37.73028],[-122.46675,37.72947],[-122.46782,37.72828],[-122.4684,37.72925],[-122.46873,37.72954],[-122.47223,37.73108],[-122.47211,37.73315],[-122.46639,37.73296],[-122.46581,37.73303],[-122.46558,37.73299],[-122.46451,37.73221]]]}},{"type":"Feature","properties":{"name":"Forest Hills Extension"},"geometry":{"type":"Polygon","coordinates":[[[-122.45881,37.7474],[-122.45886,37.74722],[-122.45856,37.74694],[-122.45789,37.74693],[-122.45668,37.74673],[-122.45484,37.74629],[-122.45419,37.74596],[-122.45346,37.74576],[-122.45167,37.74572],[-122.45372,37.74462],[-122.45447,37.74407],[-122.45531,37.74328],[-122.456,37.74224],[-122.45654,37.7417],[-122.45832,37.74083],[-122.45937,37.74063],[-122.46099,37.74245],[-122.46147,37.74286],[-122.46338,37.74385],[-122.45881,37.7474]]]}},{"type":"Feature","properties":{"name":"Midtown Terrace"},"geometry":{"type":"Polygon","coordinates":[[[-122.4537,37.75731],[-122.45333,37.75683],[-122.45248,37.75704],[-122.45214,37.75692],[-122.45216,37.75657],[-122.44701,37.75684],[-122.44672,37.75632],[-122.44623,37.75591],[-122.44593,37.75589],[-122.44555,37.75601],[-122.44534,37.756],[-122.44518,37.75587],[-122.44519,37.7557],[-122.44533,37.75558],[-122.44647,37.75531],[-122.44705,37.7554],[-122.44766,37.75582],[-122.44788,37.75569],[-122.4477,37.75498],[-122.44732,37.75415],[-122.44687,37.75376],[-122.44672,37.75339],[-122.44767,37.75228],[-122.44821,37.75196],[-122.44841,37.75163],[-122.44859,37.75103],[-122.44918,37.75058],[-122.44941,37.75029],[-122.44961,37.74982],[-122.44962,37.74943],[-122.44946,37.74918],[-122.44924,37.74915],[-122.44897,37.74931],[-122.44816,37.75029],[-122.44788,37.75029],[-122.44713,37.75007],[-122.44647,37.74977],[-122.44542,37.74921],[-122.44512,37.74846],[-122.44499,37.74712],[-122.44484,37.74705],[-122.45048,37.74582],[-122.45085,37.74583],[-122.45133,37.74557],[-122.45162,37.74553],[-122.45195,37.74558],[-122.45167,37.74572],[-122.45346,37.74576],[-122.45419,37.74596],[-122.45484,37.74629],[-122.45668,37.74673],[-122.45789,37.74693],[-122.45856,37.74694],[-122.45886,37.74722],[-122.45855,37.7478],[-122.45876,37.74843],[-122.45911,37.74863],[-122.46024,37.74972],[-122.46052,37.75012],[-122.46084,37.75083],[-122.46118,37.75132],[-122.46145,37.75151],[-122.46067,37.75168],[-122.45918,37.75181],[-122.45728,37.75131],[-122.45658,37.75132],[-122.45615,37.75155],[-122.45589,37.75189],[-122.45584,37.75287],[-122.45571,37.75326],[-122.45511,37.75413],[-122.45483,37.75516],[-122.45412,37.75624],[-122.45392,37.75703],[-122.4537,37.75731]]]}},{"type":"Feature","properties":{"name":"Monterey Heights"},"geometry":{"type":"Polygon","coordinates":[[[-122.45822,37.73072],[-122.4592,37.73069],[-122.46151,37.72991],[-122.46186,37.72992],[-122.46259,37.73016],[-122.46337,37.73061],[-122.46365,37.731],[-122.46391,37.73162],[-122.46421,37.73193],[-122.46275,37.73314],[-122.46278,37.73337],[-122.46306,37.73372],[-122.46301,37.73457],[-122.46361,37.7352],[-122.46372,37.73548],[-122.46124,37.73578],[-122.46116,37.73586],[-122.46027,37.73513],[-122.45957,37.7345],[-122.45892,37.73359],[-122.45848,37.7324],[-122.45845,37.73122],[-122.45822,37.73072]]]}},{"type":"Feature","properties":{"name":"Saint Francis Wood"},"geometry":{"type":"Polygon","coordinates":[[[-122.46011,37.73937],[-122.46044,37.73924],[-122.46114,37.73926],[-122.46145,37.7391],[-122.46154,37.73866],[-122.46092,37.73568],[-122.46116,37.73586],[-122.46124,37.73578],[-122.46372,37.73548],[-122.46361,37.7352],[-122.46301,37.73457],[-122.46306,37.73372],[-122.46278,37.73337],[-122.46275,37.73314],[-122.46421,37.73193],[-122.46558,37.73299],[-122.46581,37.73303],[-122.46639,37.73296],[-122.47211,37.73315],[-122.47202,37.7349],[-122.47086,37.73554],[-122.46616,37.73939],[-122.46546,37.73975],[-122.46395,37.74009],[-122.45918,37.74065],[-122.46015,37.74007],[-122.46025,37.73985],[-122.46011,37.73937]]]}},{"type":"Feature","properties":{"name":"Sherwood Forest"},"geometry":{"type":"Polygon","coordinates":[[[-122.45915,37.73621],[-122.4595,37.73665],[-122.45981,37.73688],[-122.46001,37.73748],[-122.46028,37.73785],[-122.46043,37.73765],[-122.46044,37.73702],[-122.4603,37.73663],[-122.45986,37.73617],[-122.45971,37.73569],[-122.45936,37.73509],[-122.45922,37.73405],[-122.45957,37.7345],[-122.46092,37.73568],[-122.46154,37.73866],[-122.46145,37.7391],[-122.46114,37.73926],[-122.46044,37.73924],[-122.46011,37.73937],[-122.45989,37.73931],[-122.45921,37.7391],[-122.45952,37.73866],[-122.45869,37.73847],[-122.45747,37.73856],[-122.45667,37.73814],[-122.45581,37.73744],[-122.45525,37.73726],[-122.45433,37.7372],[-122.45367,37.73673],[-122.45374,37.73659],[-122.45406,37.73656],[-122.45446,37.73618],[-122.45486,37.73606],[-122.45681,37.73601],[-122.45771,37.73611],[-122.45839,37.73599],[-122.45915,37.73621]]]}},{"type":"Feature","properties":{"name":"Mission Bay"},"geometry":{"type":"Polygon","coordinates":[[[-122.39942,37.77356],[-122.39716,37.77169],[-122.39863,37.77047],[-122.39851,37.77031],[-122.39854,37.77014],[-122.39839,37.77004],[-122.39819,37.77014],[-122.39666,37.77147],[-122.39674,37.77154],[-122.39662,37.77147],[-122.39656,37.77153],[-122.39665,37.77161],[-122.39654,37.77154],[-122.39647,37.7716],[-122.39654,37.77169],[-122.39645,37.77161],[-122.39637,37.77167],[-122.39646,37.77175],[-122.39631,37.77172],[-122.3964,37.7718],[-122.39623,37.77178],[-122.39632,37.77186],[-122.39621,37.7718],[-122.39599,37.77197],[-122.39604,37.77204],[-122.39598,37.77198],[-122.39592,37.77203],[-122.39598,37.77208],[-122.3959,37.77204],[-122.39561,37.77227],[-122.39567,37.77233],[-122.39559,37.77229],[-122.39553,37.77234],[-122.39559,37.77239],[-122.39545,37.7724],[-122.39552,37.77245],[-122.39543,37.77241],[-122.39537,37.77246],[-122.39544,37.77251],[-122.39536,37.77247],[-122.39522,37.77258],[-122.39528,37.77264],[-122.3952,37.7726],[-122.39495,37.77279],[-122.39505,37.77287],[-122.39487,37.77286],[-122.39499,37.77297],[-122.39485,37.77287],[-122.39479,37.77292],[-122.3949,37.77304],[-122.39477,37.77293],[-122.39469,37.773],[-122.3948,37.77312],[-122.39467,37.77302],[-122.39445,37.77319],[-122.39429,37.77305],[-122.39398,37.77319],[-122.39227,37.7746],[-122.39228,37.77477],[-122.39276,37.77439],[-122.39283,37.77445],[-122.39237,37.77484],[-122.39239,37.77492],[-122.39223,37.77504],[-122.39194,37.77492],[-122.39022,37.77625],[-122.39019,37.7765],[-122.38995,37.77662],[-122.38985,37.77645],[-122.38982,37.77659],[-122.38758,37.77675],[-122.38733,37.77661],[-122.38731,37.77632],[-122.3871,37.77633],[-122.38708,37.7761],[-122.38499,37.77632],[-122.38488,37.77533],[-122.387,37.77508],[-122.38692,37.77433],[-122.38181,37.77462],[-122.38146,37.77192],[-122.38473,37.77336],[-122.38676,37.77327],[-122.38657,37.77283],[-122.38672,37.77277],[-122.38671,37.77244],[-122.38654,37.77195],[-122.38644,37.77194],[-122.38638,37.77146],[-122.38602,37.7712],[-122.38585,37.77069],[-122.38578,37.7707],[-122.3858,37.77125],[-122.38562,37.77216],[-122.38555,37.77215],[-122.38568,37.77144],[-122.38552,37.77143],[-122.38529,37.77163],[-122.38572,37.77059],[-122.38556,37.77064],[-122.38315,37.76971],[-122.38338,37.76933],[-122.38557,37.77018],[-122.38502,37.76886],[-122.38489,37.76888],[-122.38479,37.76866],[-122.38501,37.76859],[-122.38504,37.76834],[-122.38517,37.7683],[-122.38516,37.76806],[-122.38533,37.76789],[-122.3853,37.76754],[-122.38538,37.76741],[-122.38529,37.76712],[-122.38561,37.7671],[-122.3856,37.76696],[-122.38566,37.76682],[-122.38576,37.76682],[-122.38591,37.76628],[-122.38652,37.76541],[-122.38645,37.76447],[-122.39274,37.76408],[-122.393,37.76478],[-122.39351,37.76558],[-122.39434,37.76658],[-122.39505,37.76653],[-122.40166,37.77182],[-122.39942,37.77356]]]}},{"type":"Feature","properties":{"name":"Golden Gate Park"},"geometry":{"type":"Polygon","coordinates":[[[-122.45474,37.77466],[-122.45419,37.77194],[-122.44092,37.77364],[-122.44074,37.77271],[-122.45401,37.77102],[-122.45308,37.76645],[-122.45677,37.76598],[-122.45764,37.76608],[-122.45859,37.76637],[-122.51257,37.76398],[-122.51278,37.76436],[-122.51263,37.76563],[-122.51288,37.76651],[-122.51289,37.76696],[-122.51307,37.76708],[-122.51311,37.76724],[-122.51304,37.76789],[-122.51313,37.77114],[-122.46524,37.77333],[-122.45474,37.77466]]]}},{"type":"Feature","properties":{"name":"Lincoln Park"},"geometry":{"type":"Polygon","coordinates":[[[-122.49363,37.78761],[-122.49359,37.78731],[-122.49373,37.78725],[-122.49365,37.7865],[-122.49311,37.78658],[-122.49298,37.78556],[-122.49263,37.78523],[-122.49238,37.78168],[-122.50523,37.78108],[-122.5063,37.781],[-122.50651,37.78086],[-122.50712,37.78076],[-122.50961,37.78064],[-122.50958,37.78015],[-122.50943,37.77985],[-122.50923,37.77704],[-122.50929,37.77629],[-122.51086,37.77631],[-122.51089,37.77699],[-122.51207,37.77695],[-122.51129,37.77508],[-122.51113,37.77419],[-122.51128,37.77296],[-122.51103,37.77124],[-122.51313,37.77114],[-122.51312,37.77599],[-122.51335,37.77733],[-122.51351,37.7776],[-122.51397,37.77774],[-122.51463,37.77851],[-122.51449,37.77924],[-122.51457,37.77942],[-122.51485,37.77953],[-122.51495,37.77972],[-122.5149,37.77985],[-122.51464,37.77982],[-122.51457,37.7799],[-122.51447,37.78043],[-122.51447,37.7806],[-122.51472,37.78113],[-122.51459,37.7813],[-122.51429,37.78128],[-122.51424,37.78146],[-122.51376,37.78148],[-122.51388,37.78161],[-122.51347,37.78219],[-122.51359,37.7824],[-122.51346,37.78252],[-122.5135,37.7827],[-122.51331,37.78282],[-122.5131,37.78277],[-122.51299,37.78304],[-122.51303,37.7832],[-122.51288,37.78324],[-122.51281,37.78348],[-122.51252,37.78362],[-122.51247,37.78374],[-122.51271,37.78393],[-122.51268,37.78412],[-122.51257,37.78415],[-122.51211,37.78379],[-122.51192,37.78395],[-122.51201,37.78424],[-122.51191,37.78433],[-122.5113,37.78428],[-122.51131,37.78455],[-122.51123,37.78459],[-122.51102,37.78449],[-122.51075,37.78467],[-122.50981,37.78482],[-122.50912,37.78559],[-122.50857,37.7858],[-122.50822,37.78612],[-122.50796,37.78617],[-122.50772,37.78643],[-122.50763,37.78673],[-122.50734,37.78694],[-122.50697,37.78745],[-122.50653,37.78748],[-122.50613,37.78786],[-122.50609,37.78817],[-122.50585,37.78823],[-122.5052,37.78826],[-122.50468,37.78808],[-122.50407,37.78812],[-122.50346,37.78802],[-122.50293,37.78816],[-122.5027,37.78804],[-122.50211,37.78811],[-122.50207,37.78818],[-122.50188,37.78811],[-122.5018,37.78825],[-122.50173,37.78815],[-122.50095,37.78835],[-122.50055,37.78832],[-122.50027,37.78843],[-122.50025,37.78857],[-122.49997,37.78844],[-122.49981,37.78849],[-122.49976,37.78866],[-122.49958,37.7887],[-122.49943,37.78846],[-122.49904,37.78834],[-122.49885,37.78841],[-122.49881,37.78823],[-122.49861,37.78833],[-122.4986,37.78816],[-122.49839,37.78816],[-122.49814,37.78788],[-122.49797,37.78791],[-122.49786,37.78782],[-122.49784,37.78796],[-122.49762,37.78795],[-122.4975,37.78785],[-122.49746,37.78759],[-122.49722,37.78759],[-122.49655,37.78729],[-122.4948,37.78783],[-122.4947,37.78814],[-122.49452,37.78802],[-122.49449,37.7878],[-122.4944,37.7879],[-122.49416,37.7878],[-122.49401,37.78758],[-122.49363,37.78761]]]}},{"type":"Feature","properties":{"name":"Presidio"},"geometry":{"type":"Polygon","coordinates":[[[-122.47731,37.81103],[-122.47656,37.81089],[-122.4764,37.81076],[-122.47605,37.80964],[-122.47554,37.80939],[-122.4748,37.80918],[-122.47267,37.80903],[-122.47124,37.8088],[-122.4706,37.8086],[-122.46999,37.80945],[-122.4694,37.8092],[-122.46951,37.80905],[-122.47005,37.80929],[-122.47054,37.80858],[-122.46931,37.80773],[-122.46879,37.807],[-122.4683,37.80682],[-122.46815,37.80698],[-122.46804,37.80691],[-122.4682,37.80674],[-122.467,37.80591],[-122.46667,37.8058],[-122.46646,37.80598],[-122.46665,37.80579],[-122.46399,37.80494],[-122.46327,37.80489],[-122.46221,37.80502],[-122.4616,37.80496],[-122.45827,37.80551],[-122.45744,37.80574],[-122.45612,37.80596],[-122.45448,37.80647],[-122.45382,37.80629],[-122.45244,37.80627],[-122.4493,37.80684],[-122.44873,37.8067],[-122.4484,37.80459],[-122.44904,37.80433],[-122.44953,37.8039],[-122.4498,37.8034],[-122.44984,37.80282],[-122.44964,37.80227],[-122.44921,37.80181],[-122.4486,37.80149],[-122.4479,37.80136],[-122.44692,37.79501],[-122.44714,37.79501],[-122.44712,37.79424],[-122.4468,37.79424],[-122.44647,37.79214],[-122.47101,37.78724],[-122.471,37.78765],[-122.47456,37.78695],[-122.47454,37.78679],[-122.47675,37.78685],[-122.47729,37.78703],[-122.47805,37.78685],[-122.47878,37.787],[-122.47986,37.78696],[-122.48043,37.78709],[-122.48092,37.78702],[-122.48147,37.78723],[-122.48217,37.78724],[-122.48237,37.78709],[-122.48464,37.78738],[-122.48467,37.78753],[-122.48415,37.78755],[-122.48414,37.78778],[-122.48395,37.78803],[-122.48393,37.78832],[-122.48371,37.78878],[-122.48382,37.78928],[-122.48472,37.78956],[-122.48487,37.78982],[-122.48489,37.78973],[-122.485,37.78985],[-122.48495,37.79021],[-122.48505,37.79037],[-122.4854,37.79045],[-122.48598,37.7908],[-122.48436,37.79274],[-122.48359,37.79404],[-122.48329,37.79467],[-122.48352,37.79473],[-122.48218,37.79783],[-122.48208,37.79847],[-122.48183,37.79857],[-122.48193,37.79877],[-122.48178,37.79869],[-122.4817,37.79886],[-122.48155,37.79875],[-122.48169,37.79893],[-122.48139,37.79945],[-122.48111,37.79961],[-122.48097,37.80033],[-122.48076,37.80044],[-122.4802,37.80142],[-122.4799,37.8029],[-122.47936,37.80386],[-122.47873,37.80549],[-122.47841,37.80809],[-122.4779,37.80845],[-122.47798,37.81055],[-122.47769,37.81063],[-122.47774,37.81094],[-122.47731,37.81103]]]}},{"type":"Feature","properties":{"name":"Hunters Point"},"geometry":{"type":"MultiPolygon","coordinates":[[[[-122.38702,37.74705],[-122.38701,37.74691],[-122.38271,37.74716],[-122.38202,37.74706],[-122.37966,37.74721],[-122.37961,37.74698],[-122.37813,37.74712],[-122.37641,37.74716],[-122.37541,37.747],[-122.37508,37.7468],[-122.37477,37.74643],[-122.37494,37.74577],[-122.37415,37.745],[-122.37395,37.74496],[-122.37335,37.74537],[-122.37296,37.74539],[-122.37276,37.74551],[-122.36763,37.74013],[-122.36787,37.73999],[-122.36829,37.73998],[-122.36827,37.73983],[-122.37125,37.73966],[-122.37126,37.73979],[-122.37341,37.73966],[-122.37399,37.73954],[-122.37389,37.73934],[-122.3736,37.7394],[-122.37347,37.73931],[-122.37346,37.7392],[-122.37363,37.73916],[-122.37367,37.73902],[-122.37347,37.73867],[-122.37312,37.73844],[-122.3727,37.73831],[-122.37134,37.7382],[-122.36754,37.73835],[-122.36737,37.73828],[-122.36754,37.73811],[-122.36858,37.73793],[-122.36905,37.73775],[-122.36968,37.73769],[-122.37054,37.73734],[-122.37075,37.73735],[-122.37091,37.73713],[-122.37123,37.73704],[-122.372,37.73696],[-122.37328,37.73707],[-122.37561,37.73837],[-122.37607,37.73848],[-122.37636,37.73836],[-122.37646,37.73825],[-122.37602,37.73799],[-122.37554,37.73798],[-122.37518,37.73783],[-122.375,37.73766],[-122.37488,37.73729],[-122.37524,37.73623],[-122.37574,37.73583],[-122.37597,37.73582],[-122.37583,37.73549],[-122.376,37.73519],[-122.37587,37.73505],[-122.37532,37.73539],[-122.37508,37.73526],[-122.37506,37.73504],[-122.37488,37.73498],[-122.37495,37.73474],[-122.37515,37.73456],[-122.37489,37.73442],[-122.37487,37.73417],[-122.37496,37.73389],[-122.37517,37.7338],[-122.37569,37.7329],[-122.37555,37.73283],[-122.37557,37.73272],[-122.3752,37.73296],[-122.37497,37.73275],[-122.37461,37.73288],[-122.37456,37.73282],[-122.3749,37.7326],[-122.37482,37.73253],[-122.37468,37.73264],[-122.37439,37.73254],[-122.37418,37.73259],[-122.37351,37.73295],[-122.3735,37.73307],[-122.37299,37.73344],[-122.37252,37.734],[-122.37223,37.7342],[-122.37191,37.73421],[-122.37107,37.73354],[-122.37071,37.73311],[-122.36959,37.73248],[-122.36951,37.7322],[-122.36921,37.73199],[-122.3687,37.73196],[-122.36861,37.73225],[-122.36837,37.73229],[-122.36745,37.73195],[-122.36685,37.7323],[-122.36668,37.73222],[-122.36525,37.7338],[-122.36519,37.73373],[-122.36654,37.73218],[-122.36646,37.73214],[-122.36631,37.73229],[-122.36623,37.73224],[-122.36556,37.733],[-122.36533,37.733],[-122.36619,37.73192],[-122.366,37.73183],[-122.36516,37.73277],[-122.36501,37.73283],[-122.36497,37.73266],[-122.36581,37.73172],[-122.36565,37.73163],[-122.36483,37.73254],[-122.36473,37.73249],[-122.36511,37.73207],[-122.3637,37.73128],[-122.36288,37.73214],[-122.36262,37.73201],[-122.3634,37.73112],[-122.36285,37.7308],[-122.36206,37.73167],[-122.36178,37.73154],[-122.36257,37.73064],[-122.36198,37.73033],[-122.36209,37.73021],[-122.36191,37.73009],[-122.36116,37.73007],[-122.36088,37.72991],[-122.36075,37.72996],[-122.36083,37.73008],[-122.36074,37.73023],[-122.35985,37.73033],[-122.35879,37.72978],[-122.35896,37.72971],[-122.35884,37.72966],[-122.35897,37.72952],[-122.362,37.7288],[-122.36227,37.72864],[-122.36228,37.72852],[-122.36196,37.72844],[-122.36145,37.72852],[-122.35773,37.72944],[-122.35748,37.72925],[-122.35787,37.72895],[-122.36012,37.72843],[-122.3604,37.72819],[-122.35996,37.72815],[-122.35716,37.72883],[-122.35712,37.72866],[-122.35697,37.72871],[-122.3577,37.72628],[-122.35801,37.72604],[-122.36164,37.72522],[-122.36125,37.72417],[-122.35796,37.72494],[-122.35784,37.72462],[-122.36152,37.72378],[-122.36201,37.72406],[-122.36209,37.72399],[-122.3649,37.7257],[-122.36514,37.72571],[-122.36532,37.72553],[-122.36529,37.72539],[-122.36505,37.72523],[-122.36237,37.72368],[-122.36275,37.72326],[-122.35998,37.72163],[-122.36024,37.72136],[-122.363,37.72298],[-122.36381,37.7221],[-122.35913,37.71933],[-122.35982,37.71852],[-122.35998,37.71848],[-122.36271,37.72007],[-122.36366,37.71905],[-122.36253,37.71842],[-122.36246,37.71827],[-122.36252,37.71815],[-122.35858,37.71588],[-122.35872,37.71573],[-122.36264,37.71802],[-122.36387,37.71673],[-122.35992,37.71443],[-122.36004,37.7143],[-122.36397,37.71658],[-122.36437,37.71628],[-122.36524,37.7153],[-122.36519,37.71518],[-122.36109,37.71285],[-122.36117,37.71275],[-122.36539,37.71524],[-122.36441,37.71631],[-122.36463,37.71647],[-122.36487,37.71641],[-122.36522,37.71601],[-122.36555,37.716],[-122.36632,37.7168],[-122.36772,37.71764],[-122.36804,37.71775],[-122.36954,37.71785],[-122.36992,37.71812],[-122.3701,37.7185],[-122.37046,37.71871],[-122.37104,37.71874],[-122.37178,37.71901],[-122.37287,37.71898],[-122.37359,37.7188],[-122.37401,37.71892],[-122.37414,37.7191],[-122.37419,37.71945],[-122.37446,37.71976],[-122.37556,37.72045],[-122.37575,37.72111],[-122.37588,37.72126],[-122.37582,37.72156],[-122.37597,37.72274],[-122.37629,37.72316],[-122.37669,37.72343],[-122.37666,37.72359],[-122.37708,37.72424],[-122.37889,37.72384],[-122.37916,37.72354],[-122.37929,37.72305],[-122.37977,37.72283],[-122.37998,37.72226],[-122.38056,37.7218],[-122.38092,37.72178],[-122.38165,37.72216],[-122.37766,37.7266],[-122.38326,37.72977],[-122.38263,37.73043],[-122.38195,37.73055],[-122.38024,37.73047],[-122.37984,37.73065],[-122.37954,37.73096],[-122.37881,37.73209],[-122.37917,37.73252],[-122.38056,37.7326],[-122.38139,37.73297],[-122.38166,37.73318],[-122.38229,37.73383],[-122.3828,37.73457],[-122.38338,37.73599],[-122.38363,37.73693],[-122.38403,37.73765],[-122.38454,37.73806],[-122.38887,37.74052],[-122.38734,37.74489],[-122.38728,37.74535],[-122.38745,37.74709],[-122.38702,37.74705]]],[[[-122.37575,37.74869],[-122.38738,37.74761],[-122.38759,37.75026],[-122.37596,37.75094],[-122.37575,37.74869]]]]}},{"type":"Feature","properties":{"name":"Merced Heights"},"geometry":{"type":"Polygon","coordinates":[[[-122.46226,37.72161],[-122.46224,37.71816],[-122.46254,37.71816],[-122.46274,37.718],[-122.47288,37.71793],[-122.47273,37.72154],[-122.46226,37.72161]]]}},{"type":"Feature","properties":{"name":"Merced Manor"},"geometry":{"type":"Polygon","coordinates":[[[-122.48179,37.73109],[-122.48204,37.73462],[-122.47529,37.73482],[-122.47503,37.73102],[-122.48179,37.73109]]]}},{"type":"Feature","properties":{"name":"Ingleside Terrace"},"geometry":{"type":"Polygon","coordinates":[[[-122.46227,37.72517],[-122.46226,37.72161],[-122.47273,37.72154],[-122.47223,37.73108],[-122.46873,37.72954],[-122.4684,37.72925],[-122.46746,37.72778],[-122.46604,37.72661],[-122.46227,37.72517]]]}},{"type":"Feature","properties":{"name":"Westwood Highlands"},"geometry":{"type":"Polygon","coordinates":[[[-122.45372,37.7366],[-122.45375,37.7361],[-122.45332,37.73502],[-122.45263,37.73377],[-122.45347,37.73324],[-122.45341,37.73153],[-122.45351,37.73141],[-122.45578,37.73124],[-122.45822,37.73072],[-122.45845,37.73122],[-122.45841,37.7318],[-122.45857,37.73274],[-122.45922,37.73405],[-122.45936,37.73509],[-122.45971,37.73569],[-122.45986,37.73617],[-122.4603,37.73663],[-122.46044,37.73702],[-122.46043,37.73765],[-122.46028,37.73785],[-122.46001,37.73748],[-122.45981,37.73688],[-122.4595,37.73665],[-122.45915,37.73621],[-122.45865,37.73603],[-122.45839,37.73599],[-122.45771,37.73611],[-122.45681,37.73601],[-122.45486,37.73606],[-122.45446,37.73618],[-122.45406,37.73656],[-122.45372,37.7366]]]}},{"type":"Feature","properties":{"name":"Lakeside"},"geometry":{"type":"Polygon","coordinates":[[[-122.47529,37.73482],[-122.47202,37.7349],[-122.47272,37.72248],[-122.4729,37.71711],[-122.47513,37.71954],[-122.47546,37.72046],[-122.47498,37.73032],[-122.47529,37.73482]]]}},{"type":"Feature","properties":{"name":"Westwood Park"},"geometry":{"type":"Polygon","coordinates":[[[-122.45341,37.73141],[-122.45339,37.72984],[-122.45255,37.72986],[-122.45247,37.72323],[-122.46004,37.72483],[-122.45994,37.72547],[-122.46007,37.72653],[-122.45996,37.72765],[-122.46011,37.72918],[-122.45997,37.72988],[-122.45977,37.73025],[-122.4592,37.73069],[-122.45836,37.73069],[-122.45491,37.73136],[-122.45341,37.73141]]]}},{"type":"Feature","properties":{"name":"Forest Hill"},"geometry":{"type":"Polygon","coordinates":[[[-122.46809,37.74354],[-122.46819,37.74486],[-122.46815,37.74641],[-122.4662,37.7465],[-122.46589,37.74668],[-122.46609,37.74803],[-122.46628,37.74812],[-122.46584,37.74819],[-122.46569,37.74857],[-122.46576,37.74887],[-122.46555,37.74901],[-122.4647,37.74883],[-122.46466,37.74906],[-122.46485,37.74949],[-122.46533,37.74982],[-122.46553,37.75274],[-122.46303,37.75285],[-122.46199,37.7519],[-122.46118,37.75132],[-122.46024,37.74972],[-122.45911,37.74863],[-122.45876,37.74843],[-122.45855,37.7478],[-122.45881,37.7474],[-122.46338,37.74385],[-122.46809,37.74354]]]}},{"type":"Feature","properties":{"name":"Miraloma Park"},"geometry":{"type":"Polygon","coordinates":[[[-122.44578,37.73385],[-122.44619,37.73382],[-122.44705,37.73425],[-122.44889,37.73428],[-122.44935,37.7342],[-122.44998,37.73371],[-122.45255,37.7337],[-122.45332,37.73502],[-122.45375,37.7361],[-122.45375,37.73657],[-122.45367,37.73673],[-122.45433,37.7372],[-122.45525,37.73726],[-122.45581,37.73744],[-122.45667,37.73814],[-122.45747,37.73856],[-122.45869,37.73847],[-122.45952,37.73866],[-122.45921,37.7391],[-122.46011,37.73937],[-122.46025,37.73985],[-122.46015,37.74007],[-122.45918,37.74065],[-122.45832,37.74083],[-122.45654,37.7417],[-122.456,37.74224],[-122.45531,37.74328],[-122.45447,37.74407],[-122.45372,37.74462],[-122.45195,37.74558],[-122.44971,37.74299],[-122.44878,37.74269],[-122.44723,37.74254],[-122.44646,37.74226],[-122.44625,37.74146],[-122.44596,37.74108],[-122.44476,37.74077],[-122.44449,37.74061],[-122.44401,37.74008],[-122.44271,37.7396],[-122.44259,37.73944],[-122.44269,37.73845],[-122.44261,37.73805],[-122.44584,37.73698],[-122.44573,37.73674],[-122.44582,37.73635],[-122.44631,37.73589],[-122.44641,37.7356],[-122.44629,37.73522],[-122.44535,37.73455],[-122.44539,37.73425],[-122.44578,37.73385]]]}},{"type":"Feature","properties":{"name":"South Beach"},"geometry":{"type":"Polygon","coordinates":[[[-122.3912,37.79578],[-122.39241,37.79482],[-122.39227,37.79467],[-122.39194,37.79485],[-122.39165,37.79455],[-122.39195,37.79434],[-122.39167,37.79413],[-122.39167,37.79405],[-122.39198,37.79387],[-122.39159,37.79353],[-122.39172,37.79343],[-122.38881,37.79098],[-122.38893,37.79088],[-122.38861,37.79031],[-122.38805,37.79051],[-122.38801,37.79043],[-122.38837,37.79031],[-122.38822,37.79],[-122.38573,37.79097],[-122.38551,37.79056],[-122.38761,37.78979],[-122.38735,37.78931],[-122.38531,37.78978],[-122.38513,37.78928],[-122.38719,37.78877],[-122.38705,37.78823],[-122.38527,37.78852],[-122.38513,37.78813],[-122.38738,37.78772],[-122.38741,37.78724],[-122.38452,37.78739],[-122.38434,37.78573],[-122.38757,37.78546],[-122.38763,37.78486],[-122.38546,37.78499],[-122.38541,37.78461],[-122.38753,37.78445],[-122.38767,37.7844],[-122.38771,37.78388],[-122.38527,37.78402],[-122.38524,37.78378],[-122.38573,37.78374],[-122.38577,37.78343],[-122.3877,37.78328],[-122.38778,37.78287],[-122.38735,37.78279],[-122.38476,37.78294],[-122.38468,37.78254],[-122.38779,37.78228],[-122.38775,37.7818],[-122.38556,37.78194],[-122.38551,37.78178],[-122.38492,37.78179],[-122.38551,37.78174],[-122.38552,37.78158],[-122.38763,37.78145],[-122.38758,37.78096],[-122.38747,37.78098],[-122.38748,37.7811],[-122.38745,37.78098],[-122.38734,37.78099],[-122.38733,37.78111],[-122.38732,37.78099],[-122.38721,37.78099],[-122.3872,37.78112],[-122.38719,37.781],[-122.38707,37.781],[-122.38708,37.78113],[-122.38705,37.781],[-122.38694,37.78101],[-122.38695,37.78113],[-122.38692,37.78101],[-122.38681,37.78102],[-122.38682,37.78114],[-122.3868,37.78102],[-122.38668,37.78102],[-122.38669,37.78115],[-122.38666,37.78103],[-122.38654,37.78103],[-122.38655,37.78116],[-122.38653,37.78103],[-122.38641,37.78104],[-122.38642,37.78116],[-122.38639,37.78104],[-122.38628,37.78105],[-122.38629,37.78117],[-122.38626,37.78105],[-122.38615,37.78105],[-122.38616,37.78118],[-122.38613,37.78106],[-122.38602,37.78106],[-122.38603,37.78119],[-122.386,37.78106],[-122.38588,37.78107],[-122.38589,37.78119],[-122.38586,37.78107],[-122.38576,37.78108],[-122.38577,37.7812],[-122.38574,37.78108],[-122.38562,37.78108],[-122.38563,37.78121],[-122.3856,37.78109],[-122.38549,37.78109],[-122.3855,37.78122],[-122.38547,37.78109],[-122.38535,37.7811],[-122.38536,37.78122],[-122.38534,37.7811],[-122.38522,37.78111],[-122.38523,37.78123],[-122.3852,37.78111],[-122.38509,37.78112],[-122.3851,37.78124],[-122.38507,37.78112],[-122.38496,37.78112],[-122.38497,37.78125],[-122.38494,37.78112],[-122.38482,37.78113],[-122.38482,37.78125],[-122.38479,37.78098],[-122.38483,37.7811],[-122.38493,37.7811],[-122.38492,37.78097],[-122.38496,37.7811],[-122.38506,37.78109],[-122.38505,37.78096],[-122.38509,37.78109],[-122.38519,37.78108],[-122.38519,37.78096],[-122.38523,37.78108],[-122.38532,37.78107],[-122.38532,37.78095],[-122.38536,37.78107],[-122.38546,37.78107],[-122.38546,37.78094],[-122.3855,37.78106],[-122.38559,37.78106],[-122.38559,37.78093],[-122.38563,37.78106],[-122.38573,37.78105],[-122.38572,37.78093],[-122.38576,37.78105],[-122.38585,37.78104],[-122.38585,37.78092],[-122.38589,37.78104],[-122.38599,37.78104],[-122.38599,37.78091],[-122.38603,37.78103],[-122.38612,37.78103],[-122.38612,37.7809],[-122.38616,37.78103],[-122.38625,37.78102],[-122.38625,37.7809],[-122.38629,37.78102],[-122.38638,37.78101],[-122.38638,37.78089],[-122.38642,37.78101],[-122.38651,37.78101],[-122.38651,37.78088],[-122.38655,37.781],[-122.38665,37.781],[-122.38664,37.78087],[-122.38668,37.781],[-122.38678,37.78099],[-122.38678,37.78087],[-122.38682,37.78099],[-122.38691,37.78098],[-122.38691,37.78086],[-122.38695,37.78098],[-122.38704,37.78098],[-122.38704,37.78085],[-122.38708,37.78097],[-122.38717,37.78097],[-122.38717,37.78084],[-122.38721,37.78097],[-122.38731,37.78096],[-122.3873,37.78084],[-122.38734,37.78096],[-122.38744,37.78095],[-122.38745,37.78083],[-122.38747,37.78095],[-122.38758,37.78095],[-122.38754,37.78049],[-122.38496,37.78064],[-122.38484,37.78065],[-122.38482,37.78076],[-122.3848,37.78053],[-122.38484,37.78062],[-122.38494,37.78052],[-122.38496,37.78062],[-122.38504,37.78061],[-122.38505,37.78051],[-122.38508,37.78061],[-122.38516,37.7805],[-122.38528,37.7806],[-122.38528,37.7805],[-122.3854,37.78059],[-122.3854,37.78049],[-122.38543,37.78059],[-122.38552,37.78058],[-122.38552,37.78048],[-122.38555,37.78058],[-122.38563,37.78058],[-122.38563,37.78048],[-122.38575,37.78057],[-122.38575,37.78047],[-122.38578,37.78057],[-122.38588,37.78046],[-122.3859,37.78056],[-122.38599,37.78056],[-122.38599,37.78046],[-122.38602,37.78055],[-122.38612,37.78045],[-122.38614,37.78055],[-122.38623,37.78054],[-122.38623,37.78044],[-122.38626,37.78054],[-122.38635,37.78054],[-122.38635,37.78043],[-122.38646,37.78053],[-122.38648,37.78043],[-122.3865,37.78053],[-122.38658,37.78052],[-122.38658,37.78042],[-122.3867,37.78051],[-122.3867,37.78041],[-122.38673,37.78051],[-122.38682,37.78051],[-122.38682,37.78041],[-122.38693,37.7805],[-122.38693,37.7804],[-122.38696,37.7805],[-122.38705,37.78049],[-122.38705,37.78039],[-122.38717,37.78049],[-122.38717,37.78039],[-122.3873,37.78048],[-122.3873,37.78038],[-122.38733,37.78048],[-122.38742,37.78037],[-122.38744,37.78047],[-122.38753,37.78047],[-122.3875,37.78006],[-122.38492,37.78019],[-122.3848,37.78021],[-122.38478,37.78031],[-122.38476,37.78008],[-122.3848,37.78018],[-122.38489,37.78007],[-122.385,37.78017],[-122.385,37.78007],[-122.38504,37.78017],[-122.38512,37.78006],[-122.38523,37.78015],[-122.38525,37.78005],[-122.38527,37.78015],[-122.38536,37.78015],[-122.38536,37.78005],[-122.38548,37.78014],[-122.38548,37.78004],[-122.38551,37.78014],[-122.38559,37.78003],[-122.38571,37.78013],[-122.38571,37.78003],[-122.38582,37.78012],[-122.38584,37.78002],[-122.38586,37.78012],[-122.38596,37.78001],[-122.38598,37.78011],[-122.38607,37.78011],[-122.38608,37.78001],[-122.3861,37.78011],[-122.38621,37.78],[-122.38622,37.7801],[-122.38631,37.7801],[-122.38631,37.77999],[-122.38642,37.78009],[-122.38642,37.77999],[-122.38654,37.78008],[-122.38654,37.77998],[-122.38666,37.78008],[-122.38668,37.77997],[-122.38669,37.78007],[-122.38678,37.78007],[-122.38678,37.77997],[-122.38689,37.78006],[-122.38689,37.77996],[-122.38692,37.78006],[-122.38702,37.77995],[-122.38704,37.78005],[-122.38713,37.78005],[-122.38713,37.77995],[-122.38717,37.78005],[-122.38726,37.78004],[-122.38726,37.77994],[-122.38737,37.78004],[-122.38737,37.77993],[-122.38749,37.78003],[-122.38746,37.77966],[-122.38488,37.7798],[-122.38478,37.7799],[-122.38476,37.77969],[-122.38481,37.77979],[-122.38488,37.77969],[-122.38491,37.77978],[-122.385,37.77968],[-122.38502,37.77977],[-122.38509,37.77968],[-122.38519,37.77976],[-122.38519,37.77967],[-122.38522,37.77976],[-122.38528,37.77966],[-122.38539,37.77975],[-122.38539,37.77966],[-122.38542,37.77975],[-122.38549,37.77965],[-122.38553,37.77975],[-122.3856,37.77965],[-122.38571,37.77973],[-122.38571,37.77964],[-122.38581,37.77973],[-122.38582,37.77963],[-122.38584,37.77973],[-122.38591,37.77963],[-122.38601,37.77972],[-122.38601,37.77962],[-122.38605,37.77971],[-122.38612,37.77962],[-122.38621,37.77971],[-122.38621,37.77961],[-122.38624,37.7797],[-122.38632,37.7796],[-122.38642,37.77969],[-122.38642,37.7796],[-122.38645,37.77969],[-122.38652,37.77959],[-122.38662,37.77968],[-122.38662,37.77959],[-122.38666,37.77968],[-122.38673,37.77958],[-122.38676,37.77967],[-122.38683,37.77957],[-122.38693,37.77966],[-122.38693,37.77957],[-122.38697,37.77966],[-122.38705,37.77956],[-122.38705,37.77966],[-122.38715,37.77956],[-122.38724,37.77965],[-122.38724,37.77956],[-122.38727,37.77964],[-122.38734,37.77955],[-122.38745,37.77963],[-122.38743,37.7793],[-122.38488,37.77943],[-122.38475,37.77954],[-122.38473,37.77933],[-122.38477,37.77942],[-122.38485,37.77932],[-122.38488,37.77942],[-122.38495,37.77932],[-122.38498,37.77941],[-122.38506,37.77931],[-122.38509,37.7794],[-122.38517,37.7793],[-122.38525,37.77939],[-122.38525,37.7793],[-122.38535,37.77939],[-122.38536,37.77929],[-122.38539,37.77939],[-122.38546,37.77929],[-122.38549,37.77938],[-122.38557,37.77928],[-122.38566,37.77937],[-122.38567,37.77928],[-122.3857,37.77937],[-122.38577,37.77927],[-122.3858,37.77936],[-122.38588,37.77926],[-122.38591,37.77936],[-122.38598,37.77926],[-122.38608,37.77935],[-122.38608,37.77925],[-122.38611,37.77934],[-122.38619,37.77925],[-122.38621,37.77934],[-122.38629,37.77924],[-122.38638,37.77933],[-122.38638,37.77923],[-122.38641,37.77933],[-122.38649,37.77923],[-122.38659,37.77932],[-122.38659,37.77922],[-122.38662,37.77931],[-122.38669,37.77922],[-122.38673,37.77931],[-122.3868,37.77921],[-122.38683,37.7793],[-122.3869,37.7792],[-122.38699,37.77929],[-122.387,37.7792],[-122.38703,37.77929],[-122.38711,37.77919],[-122.38713,37.77929],[-122.3872,37.7792],[-122.3873,37.77928],[-122.38731,37.77919],[-122.38742,37.77927],[-122.38739,37.77894],[-122.38491,37.77907],[-122.38478,37.77916],[-122.38477,37.77898],[-122.3848,37.77906],[-122.38487,37.77897],[-122.38491,37.77906],[-122.38498,37.77897],[-122.38506,37.77905],[-122.38506,37.77896],[-122.38509,37.77904],[-122.38516,37.77896],[-122.38519,37.77904],[-122.38527,37.77895],[-122.38528,37.77903],[-122.38535,37.77895],[-122.38545,37.77902],[-122.38545,37.77894],[-122.38554,37.77902],[-122.38555,37.77893],[-122.38564,37.77901],[-122.38564,37.77893],[-122.38567,37.77901],[-122.38574,37.77892],[-122.38583,37.779],[-122.38583,37.77892],[-122.38593,37.779],[-122.38593,37.77891],[-122.38596,37.779],[-122.38603,37.77891],[-122.38613,37.77899],[-122.38613,37.7789],[-122.38616,37.77898],[-122.38624,37.7789],[-122.38632,37.77897],[-122.38634,37.77889],[-122.38641,37.77897],[-122.38642,37.77888],[-122.38651,37.77896],[-122.38652,37.77888],[-122.38655,37.77896],[-122.38661,37.77887],[-122.3867,37.77895],[-122.3867,37.77887],[-122.3868,37.77895],[-122.3868,37.77886],[-122.38689,37.77894],[-122.3869,37.77886],[-122.38693,37.77894],[-122.38701,37.77885],[-122.38702,37.77893],[-122.38709,37.77885],[-122.38712,37.77893],[-122.38719,37.77885],[-122.38728,37.77892],[-122.38728,37.77884],[-122.38738,37.77891],[-122.38736,37.77861],[-122.38526,37.77873],[-122.38513,37.77882],[-122.38511,37.77863],[-122.38516,37.77871],[-122.38523,37.77863],[-122.38532,37.7787],[-122.38534,37.77862],[-122.38535,37.7787],[-122.38542,37.77862],[-122.38551,37.77869],[-122.38552,37.77861],[-122.38555,37.77869],[-122.38561,37.77861],[-122.3857,37.77868],[-122.38571,37.7786],[-122.3858,37.77868],[-122.38581,37.77859],[-122.3859,37.77867],[-122.38591,37.77859],[-122.38599,37.77866],[-122.38599,37.77858],[-122.38609,37.77866],[-122.38609,37.77858],[-122.38612,37.77866],[-122.3862,37.77857],[-122.38628,37.77865],[-122.38628,37.77857],[-122.38631,37.77865],[-122.38639,37.77856],[-122.38647,37.77864],[-122.38649,37.77855],[-122.38651,37.77863],[-122.38658,37.77855],[-122.38667,37.77863],[-122.38669,37.77854],[-122.38671,37.77862],[-122.38677,37.77854],[-122.38686,37.77861],[-122.38687,37.77853],[-122.3869,37.77861],[-122.38696,37.77853],[-122.38706,37.7786],[-122.38706,37.77852],[-122.38709,37.7786],[-122.38715,37.77853],[-122.38725,37.77859],[-122.38725,37.77852],[-122.38735,37.77859],[-122.38734,37.77836],[-122.38529,37.77845],[-122.38769,37.77834],[-122.38762,37.77821],[-122.39041,37.77714],[-122.39024,37.77696],[-122.39243,37.7753],[-122.39239,37.77522],[-122.39261,37.77503],[-122.39272,37.77512],[-122.39316,37.7749],[-122.39344,37.7746],[-122.3962,37.77249],[-122.39616,37.77237],[-122.39635,37.7722],[-122.39716,37.77169],[-122.39942,37.77356],[-122.39498,37.77709],[-122.39653,37.77833],[-122.3965,37.77851],[-122.39663,37.7784],[-122.3986,37.77998],[-122.39638,37.78175],[-122.39571,37.78255],[-122.39294,37.78484],[-122.39381,37.78499],[-122.3941,37.78515],[-122.39601,37.78668],[-122.39588,37.78723],[-122.39444,37.78836],[-122.39435,37.7886],[-122.39277,37.78995],[-122.39647,37.79291],[-122.39637,37.79299],[-122.3965,37.7931],[-122.39475,37.79448],[-122.39481,37.79468],[-122.39447,37.79495],[-122.39307,37.79572],[-122.393,37.79556],[-122.39159,37.79621],[-122.3912,37.79578]]]}},{"type":"Feature","properties":{"name":"Silver Terrace"},"geometry":{"type":"Polygon","coordinates":[[[-122.40676,37.73525],[-122.40508,37.73579],[-122.40403,37.73628],[-122.40244,37.73725],[-122.40156,37.73799],[-122.39969,37.74004],[-122.39222,37.7358],[-122.3956,37.73203],[-122.39497,37.73093],[-122.39529,37.72953],[-122.39761,37.72986],[-122.39877,37.72849],[-122.39941,37.72673],[-122.40046,37.72697],[-122.40308,37.72846],[-122.40457,37.73149],[-122.40676,37.73525]]]}},{"type":"Feature","properties":{"name":"Little Hollywood"},"geometry":{"type":"Polygon","coordinates":[[[-122.40531,37.70837],[-122.40423,37.71041],[-122.40328,37.71182],[-122.40164,37.71248],[-122.40066,37.71306],[-122.39959,37.71403],[-122.39899,37.71534],[-122.39854,37.7159],[-122.39819,37.71518],[-122.39677,37.71351],[-122.39604,37.71239],[-122.39566,37.71136],[-122.39499,37.7084],[-122.40531,37.70837]]]}},{"type":"Feature","properties":{"name":"Mount Davidson Manor"},"geometry":{"type":"Polygon","coordinates":[[[-122.46259,37.73016],[-122.46186,37.72992],[-122.46151,37.72991],[-122.4592,37.73069],[-122.45977,37.73025],[-122.45997,37.72988],[-122.46011,37.72918],[-122.45996,37.72765],[-122.46007,37.72653],[-122.45994,37.72547],[-122.46004,37.72483],[-122.46138,37.72511],[-122.46138,37.72486],[-122.46569,37.72643],[-122.46731,37.72762],[-122.46782,37.72828],[-122.46675,37.72947],[-122.46636,37.73028],[-122.46544,37.73009],[-122.46523,37.73151],[-122.46451,37.73221],[-122.46391,37.73162],[-122.46365,37.731],[-122.46337,37.73061],[-122.46259,37.73016]]]}},{"type":"Feature","properties":{"name":"Diamond Heights"},"geometry":{"type":"Polygon","coordinates":[[[-122.45194,37.74557],[-122.45133,37.74557],[-122.45085,37.74583],[-122.45048,37.74582],[-122.44484,37.74705],[-122.44356,37.74645],[-122.44324,37.74646],[-122.4413,37.74707],[-122.44068,37.74704],[-122.44032,37.74673],[-122.44034,37.74588],[-122.4402,37.74518],[-122.43974,37.74468],[-122.43663,37.74272],[-122.43609,37.74212],[-122.43572,37.74134],[-122.43571,37.74072],[-122.43689,37.73866],[-122.4374,37.73843],[-122.43938,37.73879],[-122.43984,37.73878],[-122.44259,37.738],[-122.44269,37.73845],[-122.44259,37.73944],[-122.44271,37.7396],[-122.44401,37.74008],[-122.44449,37.74061],[-122.44476,37.74077],[-122.44596,37.74108],[-122.44625,37.74146],[-122.44646,37.74226],[-122.44723,37.74254],[-122.44878,37.74269],[-122.44971,37.74299],[-122.45194,37.74557]]]}},{"type":"Feature","properties":{"name":"Sea Cliff"},"geometry":{"type":"Polygon","coordinates":[[[-122.48505,37.79037],[-122.48495,37.79021],[-122.485,37.78985],[-122.48489,37.78973],[-122.48487,37.78982],[-122.48472,37.78956],[-122.48382,37.78928],[-122.48371,37.78878],[-122.48393,37.78832],[-122.48395,37.78803],[-122.48414,37.78778],[-122.48415,37.78755],[-122.48754,37.7874],[-122.48727,37.78367],[-122.4925,37.78343],[-122.49263,37.78523],[-122.49298,37.78556],[-122.49311,37.78658],[-122.49365,37.7865],[-122.49373,37.78725],[-122.49359,37.78731],[-122.49363,37.78761],[-122.49297,37.78774],[-122.49283,37.78788],[-122.49268,37.78775],[-122.49238,37.78779],[-122.49128,37.78828],[-122.49005,37.78922],[-122.48983,37.78948],[-122.48899,37.78928],[-122.48848,37.78944],[-122.4881,37.78943],[-122.48786,37.78959],[-122.48737,37.78943],[-122.48625,37.79041],[-122.48598,37.7908],[-122.4854,37.79045],[-122.48505,37.79037]]]}},{"type":"Feature","properties":{"name":"Yerba Buena"},"geometry":{"type":"Polygon","coordinates":[[[-122.3943,37.78378],[-122.39423,37.78373],[-122.39432,37.78374],[-122.39571,37.78255],[-122.39638,37.78175],[-122.40097,37.77818],[-122.40802,37.7838],[-122.40792,37.78388],[-122.40807,37.78399],[-122.3965,37.7931],[-122.39637,37.79299],[-122.39647,37.79291],[-122.39277,37.78995],[-122.39435,37.7886],[-122.39444,37.78836],[-122.39588,37.78723],[-122.39601,37.78668],[-122.39565,37.78638],[-122.3941,37.78515],[-122.39381,37.78499],[-122.39294,37.78484],[-122.3943,37.78378]]]}},{"type":"Feature","properties":{"name":"Golden Gate Heights"},"geometry":{"type":"Polygon","coordinates":[[[-122.47144,37.75891],[-122.47072,37.75836],[-122.47009,37.75837],[-122.46989,37.75548],[-122.46844,37.75511],[-122.46769,37.75474],[-122.46755,37.75265],[-122.46553,37.75274],[-122.46533,37.74982],[-122.46485,37.74949],[-122.46466,37.74906],[-122.4647,37.74883],[-122.46555,37.74901],[-122.46576,37.74887],[-122.46569,37.74857],[-122.46584,37.74819],[-122.46628,37.74812],[-122.46609,37.74803],[-122.46589,37.74668],[-122.4662,37.7465],[-122.46815,37.74641],[-122.46819,37.74486],[-122.46809,37.74354],[-122.47024,37.7434],[-122.4705,37.74691],[-122.47061,37.74691],[-122.47077,37.74886],[-122.47287,37.74879],[-122.47334,37.75546],[-122.47372,37.75613],[-122.47373,37.75637],[-122.47357,37.75676],[-122.47302,37.75754],[-122.47282,37.75827],[-122.47312,37.75875],[-122.47293,37.75899],[-122.47253,37.75922],[-122.47209,37.75914],[-122.47144,37.75891]]]}},{"type":"Feature","properties":{"name":"Ingleside Heights"},"geometry":{"type":"Polygon","coordinates":[[[-122.46256,37.71059],[-122.46418,37.71055],[-122.46539,37.71039],[-122.46733,37.7096],[-122.46894,37.7082],[-122.47133,37.7082],[-122.47136,37.71147],[-122.47167,37.71365],[-122.4729,37.71707],[-122.47288,37.71793],[-122.46274,37.718],[-122.46264,37.71808],[-122.46256,37.71059]]]}},{"type":"Feature","properties":{"name":"Central Waterfront/ Dogpatch"},"geometry":{"type":"Polygon","coordinates":[[[-122.37596,37.75094],[-122.38759,37.75026],[-122.38779,37.75014],[-122.39138,37.74992],[-122.39144,37.75082],[-122.39132,37.7513],[-122.39124,37.75272],[-122.39218,37.75648],[-122.39213,37.75771],[-122.39225,37.76021],[-122.39274,37.76408],[-122.38645,37.76447],[-122.3866,37.76432],[-122.38656,37.76421],[-122.38672,37.7641],[-122.38661,37.76389],[-122.38693,37.76367],[-122.38727,37.76361],[-122.38724,37.76351],[-122.38691,37.76355],[-122.38678,37.76342],[-122.38673,37.76347],[-122.3865,37.76339],[-122.3866,37.76318],[-122.38631,37.7631],[-122.38621,37.76332],[-122.38551,37.76333],[-122.3855,37.76323],[-122.38528,37.76324],[-122.38529,37.76337],[-122.38518,37.76337],[-122.3851,37.76232],[-122.38468,37.76211],[-122.38429,37.76213],[-122.38446,37.76405],[-122.3843,37.76406],[-122.38413,37.76226],[-122.38343,37.7623],[-122.38345,37.76247],[-122.38374,37.76254],[-122.3839,37.76414],[-122.38358,37.76425],[-122.38346,37.76413],[-122.3833,37.76414],[-122.38311,37.76232],[-122.38229,37.76237],[-122.38251,37.76461],[-122.38234,37.76461],[-122.38212,37.76238],[-122.38175,37.76241],[-122.3817,37.76474],[-122.38149,37.76481],[-122.38145,37.76494],[-122.38117,37.76493],[-122.38112,37.7648],[-122.38098,37.7648],[-122.38103,37.76222],[-122.38331,37.76208],[-122.38219,37.76088],[-122.38205,37.76086],[-122.382,37.76064],[-122.38171,37.76065],[-122.38185,37.76212],[-122.38134,37.76215],[-122.38115,37.76016],[-122.38061,37.76019],[-122.38091,37.76334],[-122.3807,37.76334],[-122.3804,37.7602],[-122.37951,37.76025],[-122.37981,37.76346],[-122.37957,37.76349],[-122.3792,37.75994],[-122.38147,37.75957],[-122.38145,37.75931],[-122.3813,37.75931],[-122.3812,37.75823],[-122.38148,37.75751],[-122.38141,37.75734],[-122.38145,37.75711],[-122.38132,37.75712],[-122.38132,37.75654],[-122.38141,37.75646],[-122.38126,37.75632],[-122.38124,37.75587],[-122.38094,37.7558],[-122.38103,37.75574],[-122.38076,37.75555],[-122.38077,37.75523],[-122.38132,37.75507],[-122.38171,37.75516],[-122.38407,37.75495],[-122.38408,37.75466],[-122.38339,37.75474],[-122.38302,37.75459],[-122.38279,37.75427],[-122.3829,37.7541],[-122.38287,37.75364],[-122.38266,37.75339],[-122.38195,37.7533],[-122.38132,37.75293],[-122.37989,37.75289],[-122.37987,37.75279],[-122.38002,37.75271],[-122.37996,37.75203],[-122.37609,37.75225],[-122.37596,37.75094]],[[-122.38327,37.76231],[-122.3833,37.76258],[-122.38338,37.76256],[-122.38338,37.7623],[-122.38327,37.76231]]]}},{"type":"Feature","properties":{"name":"Crocker Amazon"},"geometry":{"type":"Polygon","coordinates":[[[-122.4247,37.71022],[-122.42335,37.70925],[-122.42376,37.70834],[-122.45467,37.70824],[-122.44899,37.71018],[-122.44562,37.71197],[-122.44199,37.71539],[-122.44121,37.71642],[-122.44103,37.71623],[-122.43393,37.71304],[-122.4294,37.71211],[-122.42568,37.71065],[-122.42482,37.71014],[-122.4247,37.71022]]]}},{"type":"Feature","properties":{"name":"Oceanview"},"geometry":{"type":"Polygon","coordinates":[[[-122.45654,37.71079],[-122.45775,37.71063],[-122.46256,37.71057],[-122.46264,37.71808],[-122.46254,37.71816],[-122.45435,37.71817],[-122.45056,37.71615],[-122.45263,37.71378],[-122.45392,37.7131],[-122.45654,37.71079]]]}},{"type":"Feature","properties":{"name":"Parkside"},"geometry":{"type":"Polygon","coordinates":[[[-122.49108,37.73724],[-122.49157,37.73727],[-122.49222,37.73714],[-122.49354,37.73671],[-122.49405,37.73664],[-122.49509,37.75144],[-122.47646,37.75226],[-122.47546,37.73734],[-122.48167,37.73706],[-122.48239,37.73741],[-122.48282,37.73742],[-122.48502,37.73701],[-122.48573,37.7367],[-122.48858,37.73697],[-122.48907,37.7372],[-122.48968,37.73772],[-122.48995,37.73778],[-122.49044,37.73775],[-122.49086,37.73752],[-122.49108,37.73724]]]}},{"type":"Feature","properties":{"name":"Visitacion Valley"},"geometry":{"type":"Polygon","coordinates":[[[-122.42335,37.70925],[-122.42455,37.7101],[-122.42418,37.71027],[-122.42392,37.71027],[-122.42445,37.71054],[-122.42434,37.71083],[-122.41951,37.71891],[-122.41475,37.718],[-122.40043,37.72177],[-122.39888,37.71658],[-122.39854,37.7159],[-122.39899,37.71534],[-122.39959,37.71403],[-122.40066,37.71306],[-122.40164,37.71248],[-122.40328,37.71182],[-122.40423,37.71041],[-122.40531,37.70837],[-122.42376,37.70834],[-122.42335,37.70925]]]}},{"type":"Feature","properties":{"name":"Outer Mission"},"geometry":{"type":"Polygon","coordinates":[[[-122.44562,37.71197],[-122.44899,37.71018],[-122.45467,37.70824],[-122.46894,37.7082],[-122.46733,37.7096],[-122.46539,37.71039],[-122.46418,37.71055],[-122.45775,37.71063],[-122.45654,37.71079],[-122.45392,37.7131],[-122.45263,37.71378],[-122.44971,37.71715],[-122.44883,37.71778],[-122.44864,37.71808],[-122.44854,37.71935],[-122.44821,37.72132],[-122.44674,37.72077],[-122.44682,37.72067],[-122.44531,37.72007],[-122.44168,37.71712],[-122.44121,37.71642],[-122.44199,37.71539],[-122.44562,37.71197]]]}},{"type":"Feature","properties":{"name":"West Portal"},"geometry":{"type":"Polygon","coordinates":[[[-122.46338,37.74385],[-122.46147,37.74286],[-122.46099,37.74245],[-122.45937,37.74063],[-122.46395,37.74009],[-122.46546,37.73975],[-122.46616,37.73939],[-122.47086,37.73554],[-122.47202,37.7349],[-122.47529,37.73482],[-122.47546,37.73734],[-122.47083,37.73754],[-122.47124,37.74333],[-122.46338,37.74385]]]}},{"type":"Feature","properties":{"name":"Bayview Heights"},"geometry":{"type":"Polygon","coordinates":[[[-122.39179,37.72044],[-122.39354,37.71849],[-122.39723,37.71406],[-122.39819,37.71518],[-122.39888,37.71658],[-122.40038,37.72164],[-122.40124,37.72381],[-122.3952,37.72237],[-122.39179,37.72044]]]}},{"type":"Feature","properties":{"name":"Mission Terrace"},"geometry":{"type":"Polygon","coordinates":[[[-122.42828,37.73196],[-122.43292,37.72738],[-122.44121,37.71642],[-122.44168,37.71712],[-122.44531,37.72007],[-122.44682,37.72067],[-122.44674,37.72077],[-122.44821,37.72132],[-122.44803,37.72249],[-122.44753,37.72401],[-122.44707,37.72486],[-122.44608,37.72622],[-122.44471,37.72741],[-122.44235,37.72896],[-122.43961,37.73024],[-122.43673,37.73123],[-122.43608,37.73106],[-122.43318,37.73189],[-122.43137,37.73223],[-122.42958,37.7322],[-122.42828,37.73196]]]}},{"type":"Feature","properties":{"name":"Excelsior"},"geometry":{"type":"Polygon","coordinates":[[[-122.42558,37.73148],[-122.42398,37.73146],[-122.42034,37.7319],[-122.41913,37.73196],[-122.41937,37.73043],[-122.41948,37.72897],[-122.4236,37.72869],[-122.41977,37.71931],[-122.41951,37.71891],[-122.42434,37.71083],[-122.42445,37.71054],[-122.42392,37.71027],[-122.42418,37.71027],[-122.42455,37.7101],[-122.4247,37.71022],[-122.42476,37.71012],[-122.42568,37.71065],[-122.4294,37.71211],[-122.43393,37.71304],[-122.44103,37.71623],[-122.44121,37.71642],[-122.43292,37.72738],[-122.42828,37.73196],[-122.42558,37.73148]]]}},{"type":"Feature","properties":{"name":"Portola"},"geometry":{"type":"Polygon","coordinates":[[[-122.40676,37.73525],[-122.40457,37.73149],[-122.40288,37.72806],[-122.40043,37.72177],[-122.41475,37.718],[-122.41951,37.71891],[-122.41977,37.71931],[-122.4236,37.72869],[-122.41948,37.72897],[-122.41937,37.73043],[-122.41913,37.73196],[-122.41669,37.73191],[-122.41591,37.73198],[-122.41439,37.73232],[-122.40968,37.73438],[-122.40676,37.73525]]]}},{"type":"Feature","properties":{"name":"Outer Parkside"},"geometry":{"type":"Polygon","coordinates":[[[-122.51054,37.75075],[-122.49509,37.75144],[-122.49384,37.73372],[-122.49723,37.73357],[-122.4993,37.73417],[-122.50083,37.73494],[-122.50223,37.73526],[-122.50851,37.73529],[-122.50845,37.73632],[-122.50879,37.73755],[-122.50876,37.73839],[-122.50889,37.739],[-122.50872,37.74025],[-122.50904,37.74114],[-122.50925,37.74135],[-122.50905,37.74246],[-122.50968,37.74444],[-122.50962,37.74479],[-122.50944,37.74493],[-122.50934,37.74594],[-122.5096,37.74716],[-122.50982,37.7477],[-122.50972,37.74912],[-122.50994,37.74962],[-122.51043,37.75035],[-122.51054,37.75075]]]}},{"type":"Feature","properties":{"name":"Bayview"},"geometry":{"type":"Polygon","coordinates":[[[-122.38759,37.75026],[-122.38738,37.74761],[-122.38753,37.7476],[-122.38777,37.74785],[-122.38811,37.74783],[-122.3881,37.74771],[-122.38815,37.74783],[-122.39041,37.74771],[-122.39216,37.74847],[-122.39291,37.74855],[-122.39305,37.74844],[-122.39298,37.74759],[-122.39291,37.74744],[-122.39256,37.74742],[-122.39231,37.74722],[-122.39156,37.74701],[-122.39152,37.74711],[-122.39161,37.74723],[-122.39128,37.74714],[-122.3915,37.74697],[-122.39049,37.74669],[-122.38917,37.74677],[-122.38812,37.74699],[-122.3877,37.74694],[-122.38745,37.74709],[-122.38728,37.74535],[-122.38734,37.74489],[-122.38887,37.74052],[-122.38454,37.73806],[-122.38403,37.73765],[-122.38363,37.73693],[-122.38338,37.73599],[-122.3828,37.73457],[-122.38229,37.73383],[-122.38166,37.73318],[-122.38139,37.73297],[-122.38056,37.7326],[-122.37917,37.73252],[-122.37881,37.73209],[-122.37954,37.73096],[-122.37984,37.73065],[-122.38024,37.73047],[-122.38195,37.73055],[-122.38263,37.73043],[-122.38326,37.72977],[-122.37766,37.7266],[-122.38165,37.72216],[-122.38255,37.72239],[-122.38363,37.72304],[-122.38383,37.7232],[-122.38391,37.72344],[-122.38436,37.72354],[-122.38504,37.72411],[-122.38559,37.72414],[-122.38623,37.72447],[-122.3866,37.72444],[-122.38693,37.72427],[-122.38689,37.72413],[-122.38555,37.72339],[-122.38498,37.72318],[-122.3829,37.72195],[-122.38272,37.72172],[-122.38274,37.72156],[-122.38293,37.72112],[-122.38337,37.72062],[-122.3834,37.72036],[-122.38619,37.71726],[-122.38674,37.71757],[-122.38791,37.71633],[-122.38813,37.7163],[-122.38816,37.716],[-122.38797,37.71538],[-122.38842,37.71506],[-122.38876,37.71466],[-122.38944,37.71556],[-122.39109,37.71726],[-122.39354,37.71849],[-122.39179,37.72044],[-122.3952,37.72237],[-122.40124,37.72381],[-122.40308,37.72846],[-122.40046,37.72697],[-122.39941,37.72673],[-122.39877,37.72849],[-122.39761,37.72986],[-122.39529,37.72953],[-122.39497,37.73093],[-122.3956,37.73203],[-122.39222,37.7358],[-122.39969,37.74004],[-122.40156,37.73799],[-122.40244,37.73725],[-122.40403,37.73628],[-122.40508,37.73579],[-122.40676,37.73525],[-122.40769,37.73696],[-122.40792,37.73773],[-122.4081,37.73919],[-122.4079,37.74041],[-122.40756,37.74142],[-122.40697,37.74237],[-122.40554,37.74412],[-122.40511,37.74492],[-122.40375,37.74919],[-122.38779,37.75014],[-122.38759,37.75026]]]}},{"type":"Feature","properties":{"name":"Ingleside"},"geometry":{"type":"Polygon","coordinates":[[[-122.44787,37.72308],[-122.44854,37.71935],[-122.44864,37.71808],[-122.44912,37.71752],[-122.44971,37.71715],[-122.45056,37.71615],[-122.45435,37.71817],[-122.46224,37.71816],[-122.46227,37.72517],[-122.46138,37.72486],[-122.46138,37.72511],[-122.45197,37.72313],[-122.44787,37.72308]]]}},{"type":"Feature","properties":{"name":"Inner Parkside"},"geometry":{"type":"Polygon","coordinates":[[[-122.47312,37.7524],[-122.47287,37.74879],[-122.47077,37.74886],[-122.47074,37.74877],[-122.47061,37.74691],[-122.4705,37.74691],[-122.47024,37.7434],[-122.47124,37.74333],[-122.47083,37.73754],[-122.47546,37.73734],[-122.47646,37.75226],[-122.47312,37.7524]]]}},{"type":"Feature","properties":{"name":"Presidio Heights"},"geometry":{"type":"Polygon","coordinates":[[[-122.46364,37.78873],[-122.44784,37.79189],[-122.44688,37.78713],[-122.45935,37.78554],[-122.45946,37.78702],[-122.46351,37.78684],[-122.46364,37.78873]]]}},{"type":"Feature","properties":{"name":"Van Ness/Civic Center"},"geometry":{"type":"Polygon","coordinates":[[[-122.41147,37.7813],[-122.4207,37.77401],[-122.42189,37.77989],[-122.42366,37.77966],[-122.4252,37.78729],[-122.4234,37.78734],[-122.42395,37.79005],[-122.42055,37.79048],[-122.41851,37.78042],[-122.41147,37.7813]]]}},{"type":"Feature","properties":{"name":"Central Sunset"},"geometry":{"type":"Polygon","coordinates":[[[-122.47749,37.76554],[-122.47646,37.75226],[-122.49509,37.75144],[-122.49601,37.76472],[-122.47749,37.76554]]]}},{"type":"Feature","properties":{"name":"Glen Park"},"geometry":{"type":"Polygon","coordinates":[[[-122.4352,37.7426],[-122.43444,37.74157],[-122.43395,37.7415],[-122.43354,37.74167],[-122.43195,37.74167],[-122.42312,37.74222],[-122.4239,37.74005],[-122.42416,37.73902],[-122.42462,37.73802],[-122.42515,37.73733],[-122.42588,37.73668],[-122.42663,37.73608],[-122.42883,37.73463],[-122.43609,37.73108],[-122.4359,37.73114],[-122.43608,37.73106],[-122.43673,37.73123],[-122.43684,37.73147],[-122.43746,37.73159],[-122.43747,37.73308],[-122.44575,37.73308],[-122.44578,37.73385],[-122.44539,37.73425],[-122.44535,37.73455],[-122.44629,37.73522],[-122.44641,37.7356],[-122.44631,37.73589],[-122.44582,37.73635],[-122.44573,37.73674],[-122.44584,37.73698],[-122.44261,37.73805],[-122.43984,37.73878],[-122.43938,37.73879],[-122.4374,37.73843],[-122.43689,37.73866],[-122.43571,37.74072],[-122.43572,37.74134],[-122.43582,37.74156],[-122.43533,37.74156],[-122.43551,37.74259],[-122.4352,37.7426]]]}},{"type":"Feature","properties":{"name":"Sunnyside"},"geometry":{"type":"Polygon","coordinates":[[[-122.44578,37.73385],[-122.44575,37.73308],[-122.43747,37.73308],[-122.43746,37.73159],[-122.43684,37.73147],[-122.43673,37.73123],[-122.43961,37.73024],[-122.44235,37.72896],[-122.44471,37.72741],[-122.44608,37.72622],[-122.44707,37.72486],[-122.44753,37.72401],[-122.44785,37.72308],[-122.45171,37.7231],[-122.45247,37.72323],[-122.45255,37.72986],[-122.45339,37.72984],[-122.45341,37.73141],[-122.45351,37.73141],[-122.45341,37.73153],[-122.45347,37.73324],[-122.45263,37.73377],[-122.45255,37.7337],[-122.44998,37.73371],[-122.44935,37.7342],[-122.44889,37.73428],[-122.44705,37.73425],[-122.44619,37.73382],[-122.44578,37.73385]]]}},{"type":"Feature","properties":{"name":"Clarendon Heights"},"geometry":{"type":"Polygon","coordinates":[[[-122.44635,37.76032],[-122.4465,37.75938],[-122.4464,37.75886],[-122.44578,37.7587],[-122.44491,37.75833],[-122.44457,37.75833],[-122.44464,37.75792],[-122.44496,37.75727],[-122.44626,37.75686],[-122.4471,37.75736],[-122.44813,37.7578],[-122.44792,37.75759],[-122.44778,37.7568],[-122.45216,37.75657],[-122.45214,37.75692],[-122.45248,37.75704],[-122.45333,37.75683],[-122.4537,37.75731],[-122.45318,37.75773],[-122.4521,37.75826],[-122.45215,37.75942],[-122.44858,37.75965],[-122.44867,37.76015],[-122.44882,37.76014],[-122.44896,37.76085],[-122.44627,37.76101],[-122.44622,37.76033],[-122.44635,37.76032]]]}},{"type":"Feature","properties":{"name":"Potrero Hill"},"geometry":{"type":"Polygon","coordinates":[[[-122.39434,37.76658],[-122.39351,37.76558],[-122.393,37.76478],[-122.39274,37.76408],[-122.39225,37.76021],[-122.39213,37.75771],[-122.39218,37.75648],[-122.39124,37.75272],[-122.39132,37.7513],[-122.39144,37.75082],[-122.39138,37.74992],[-122.40375,37.74919],[-122.40309,37.75133],[-122.40287,37.75287],[-122.40319,37.75614],[-122.40342,37.75681],[-122.40405,37.75757],[-122.40546,37.75859],[-122.40591,37.75909],[-122.4063,37.75987],[-122.40638,37.7607],[-122.40707,37.76066],[-122.40785,37.76888],[-122.40793,37.76889],[-122.40801,37.76924],[-122.4064,37.76937],[-122.40594,37.76966],[-122.40439,37.76975],[-122.40166,37.77182],[-122.39505,37.76653],[-122.39434,37.76658]]]}},{"type":"Feature","properties":{"name":"Outer Sunset"},"geometry":{"type":"Polygon","coordinates":[[[-122.51257,37.76398],[-122.49601,37.76472],[-122.49509,37.75144],[-122.51054,37.75075],[-122.51052,37.75152],[-122.51103,37.75254],[-122.51103,37.75333],[-122.51129,37.75412],[-122.5113,37.75437],[-122.51117,37.7545],[-122.51113,37.7552],[-122.51144,37.75633],[-122.51196,37.75985],[-122.51186,37.76088],[-122.5122,37.76161],[-122.51247,37.76252],[-122.51228,37.7632],[-122.51257,37.76398]]]}},{"type":"Feature","properties":{"name":"Lake Shore"},"geometry":{"type":"Polygon","coordinates":[[[-122.47498,37.73032],[-122.47594,37.73012],[-122.47829,37.73014],[-122.48655,37.72959],[-122.48564,37.72939],[-122.48437,37.72818],[-122.48367,37.72731],[-122.48378,37.72661],[-122.48475,37.72433],[-122.48489,37.72351],[-122.48491,37.71692],[-122.48502,37.71454],[-122.47736,37.71436],[-122.47627,37.71426],[-122.47546,37.71396],[-122.47347,37.71295],[-122.4727,37.71275],[-122.47214,37.71245],[-122.47141,37.71183],[-122.47133,37.7082],[-122.50277,37.70809],[-122.50361,37.71182],[-122.50392,37.71198],[-122.50399,37.71214],[-122.50415,37.71328],[-122.50442,37.71417],[-122.50553,37.7173],[-122.5058,37.71833],[-122.50576,37.71852],[-122.50604,37.71909],[-122.50612,37.72066],[-122.50652,37.72166],[-122.50766,37.72842],[-122.50805,37.72976],[-122.50818,37.73095],[-122.50801,37.73119],[-122.50803,37.73164],[-122.50841,37.73289],[-122.50826,37.73334],[-122.50827,37.73477],[-122.50851,37.73529],[-122.50223,37.73526],[-122.50083,37.73494],[-122.4993,37.73417],[-122.49723,37.73357],[-122.49132,37.73383],[-122.49135,37.7342],[-122.48204,37.73462],[-122.48179,37.73109],[-122.47503,37.73102],[-122.47498,37.73032]]]}},{"type":"Feature","properties":{"name":"South of Market"},"geometry":{"type":"Polygon","coordinates":[[[-122.40802,37.7838],[-122.40097,37.77818],[-122.3986,37.77998],[-122.39663,37.7784],[-122.3965,37.77851],[-122.39653,37.77833],[-122.39498,37.77709],[-122.40388,37.77006],[-122.40439,37.76975],[-122.40594,37.76966],[-122.4064,37.76937],[-122.40801,37.76924],[-122.40793,37.76889],[-122.41121,37.76942],[-122.41553,37.76957],[-122.41956,37.77004],[-122.42056,37.77006],[-122.42123,37.77015],[-122.42228,37.77055],[-122.42298,37.77124],[-122.42325,37.77177],[-122.4234,37.77189],[-122.40807,37.78399],[-122.40792,37.78388],[-122.40802,37.7838]]]}},{"type":"Feature","properties":{"name":"Bernal Heights"},"geometry":{"type":"Polygon","coordinates":[[[-122.40375,37.74919],[-122.40511,37.74492],[-122.40554,37.74412],[-122.40711,37.74219],[-122.40756,37.74142],[-122.4079,37.74041],[-122.4081,37.73919],[-122.40792,37.73773],[-122.40736,37.73625],[-122.40676,37.73525],[-122.40968,37.73438],[-122.41439,37.73232],[-122.41591,37.73198],[-122.41669,37.73191],[-122.4194,37.73197],[-122.42398,37.73146],[-122.42558,37.73148],[-122.42958,37.7322],[-122.43137,37.73223],[-122.43318,37.73189],[-122.43609,37.73108],[-122.43043,37.73378],[-122.42824,37.73496],[-122.42663,37.73608],[-122.42515,37.73733],[-122.42462,37.73802],[-122.42416,37.73902],[-122.4239,37.74005],[-122.42202,37.74524],[-122.42231,37.74802],[-122.41917,37.74818],[-122.41841,37.7481],[-122.4183,37.74801],[-122.40826,37.74822],[-122.40476,37.74913],[-122.40375,37.74919]]]}},{"type":"Feature","properties":{"name":"Western Addition"},"geometry":{"type":"Polygon","coordinates":[[[-122.42366,37.77966],[-122.43005,37.77885],[-122.42985,37.77792],[-122.4331,37.77751],[-122.43346,37.77928],[-122.43867,37.77862],[-122.43964,37.78339],[-122.43933,37.78326],[-122.43785,37.78372],[-122.4248,37.78532],[-122.42366,37.77966]]]}},{"type":"Feature","properties":{"name":"Outer Richmond"},"geometry":{"type":"Polygon","coordinates":[[[-122.49238,37.78168],[-122.49168,37.77212],[-122.51103,37.77124],[-122.51128,37.77296],[-122.51113,37.77419],[-122.51129,37.77508],[-122.51207,37.77695],[-122.51089,37.77699],[-122.51086,37.77631],[-122.50929,37.77629],[-122.50923,37.77704],[-122.50943,37.77985],[-122.50958,37.78015],[-122.50961,37.78064],[-122.50712,37.78076],[-122.50651,37.78086],[-122.5063,37.781],[-122.50523,37.78108],[-122.49238,37.78168]]]}},{"type":"Feature","properties":{"name":"North Waterfront"},"geometry":{"type":"Polygon","coordinates":[[[-122.40787,37.80821],[-122.40766,37.80825],[-122.40771,37.80838],[-122.40761,37.8084],[-122.40749,37.80793],[-122.40736,37.80805],[-122.40664,37.80782],[-122.40682,37.80999],[-122.40615,37.81005],[-122.4059,37.80716],[-122.40532,37.80687],[-122.40436,37.80887],[-122.40391,37.80873],[-122.40472,37.80697],[-122.40396,37.80658],[-122.40276,37.80802],[-122.40234,37.80782],[-122.40342,37.80647],[-122.4028,37.80602],[-122.40091,37.80764],[-122.4004,37.80726],[-122.40097,37.80356],[-122.40085,37.80343],[-122.40048,37.80347],[-122.39852,37.8046],[-122.39823,37.80425],[-122.39997,37.80323],[-122.3996,37.80281],[-122.39783,37.80381],[-122.39751,37.80347],[-122.39962,37.80228],[-122.39973,37.80218],[-122.39941,37.80182],[-122.39915,37.80189],[-122.3971,37.80302],[-122.39614,37.80194],[-122.39838,37.80067],[-122.39799,37.80023],[-122.39575,37.80148],[-122.39544,37.80115],[-122.39762,37.79987],[-122.39726,37.79944],[-122.3969,37.79963],[-122.39725,37.7994],[-122.39708,37.79921],[-122.40237,37.79854],[-122.40348,37.80412],[-122.40668,37.80371],[-122.4072,37.80632],[-122.41729,37.80507],[-122.41975,37.80676],[-122.42056,37.80666],[-122.42071,37.80742],[-122.42092,37.80757],[-122.42154,37.80749],[-122.42169,37.80795],[-122.42153,37.80807],[-122.42179,37.80837],[-122.42149,37.80811],[-122.42132,37.80828],[-122.42159,37.80854],[-122.4213,37.8083],[-122.42105,37.80855],[-122.4211,37.8088],[-122.42145,37.80916],[-122.42289,37.81022],[-122.42137,37.80916],[-122.42121,37.80919],[-122.42104,37.80896],[-122.42094,37.80897],[-122.42091,37.8088],[-122.42072,37.8089],[-122.42076,37.80908],[-122.42036,37.809],[-122.42038,37.80893],[-122.42067,37.80896],[-122.42064,37.80876],[-122.42054,37.80877],[-122.42046,37.8083],[-122.4191,37.80847],[-122.41912,37.80854],[-122.41898,37.80856],[-122.41897,37.80848],[-122.41789,37.80861],[-122.41792,37.80882],[-122.41784,37.80883],[-122.41781,37.80865],[-122.41749,37.80858],[-122.41749,37.80842],[-122.41767,37.80838],[-122.41765,37.80829],[-122.41738,37.80833],[-122.41734,37.80814],[-122.41635,37.80826],[-122.41634,37.80848],[-122.41718,37.80853],[-122.41615,37.8085],[-122.41619,37.80885],[-122.41743,37.80893],[-122.41741,37.80917],[-122.4206,37.81127],[-122.42035,37.81151],[-122.42,37.81128],[-122.41985,37.81132],[-122.41992,37.81157],[-122.41972,37.81113],[-122.41899,37.81084],[-122.41894,37.81088],[-122.41913,37.81102],[-122.41905,37.81109],[-122.41947,37.81138],[-122.41935,37.81149],[-122.41885,37.81147],[-122.41535,37.80916],[-122.41515,37.80923],[-122.41541,37.80936],[-122.41537,37.80941],[-122.41504,37.80919],[-122.41489,37.80924],[-122.41522,37.80944],[-122.41518,37.80948],[-122.41478,37.80928],[-122.41477,37.80937],[-122.41534,37.80976],[-122.41529,37.80984],[-122.41342,37.80924],[-122.41337,37.80932],[-122.41428,37.80995],[-122.41403,37.81014],[-122.41378,37.80991],[-122.41386,37.80985],[-122.41262,37.80908],[-122.41238,37.80917],[-122.41263,37.80939],[-122.41257,37.80943],[-122.41237,37.80917],[-122.4121,37.80929],[-122.41232,37.80956],[-122.41225,37.8096],[-122.41206,37.80934],[-122.41189,37.80939],[-122.41286,37.81052],[-122.41272,37.8106],[-122.41125,37.80892],[-122.41109,37.80891],[-122.41126,37.80915],[-122.41104,37.8089],[-122.41055,37.80882],[-122.4104,37.80931],[-122.41063,37.80972],[-122.41071,37.80969],[-122.41063,37.80955],[-122.41073,37.80967],[-122.41073,37.80956],[-122.41082,37.80964],[-122.41079,37.80953],[-122.41089,37.80961],[-122.41086,37.80951],[-122.41095,37.80959],[-122.41092,37.80948],[-122.41102,37.80957],[-122.41099,37.80946],[-122.41109,37.80954],[-122.41106,37.80943],[-122.4112,37.80968],[-122.41112,37.80957],[-122.41105,37.80959],[-122.41111,37.80971],[-122.41098,37.80962],[-122.41103,37.80974],[-122.41091,37.80964],[-122.41096,37.80976],[-122.41084,37.80967],[-122.41088,37.80979],[-122.41076,37.8097],[-122.41081,37.80982],[-122.41075,37.8097],[-122.41064,37.80973],[-122.4109,37.81019],[-122.41098,37.81016],[-122.41092,37.81002],[-122.411,37.81014],[-122.41099,37.81],[-122.41108,37.81012],[-122.41105,37.80998],[-122.41115,37.81009],[-122.41114,37.80994],[-122.41126,37.81005],[-122.41121,37.80992],[-122.41133,37.81002],[-122.41129,37.80989],[-122.4114,37.81],[-122.41134,37.80987],[-122.41147,37.80997],[-122.41142,37.80984],[-122.41155,37.80995],[-122.4115,37.80981],[-122.41158,37.80993],[-122.41157,37.80979],[-122.41169,37.80989],[-122.41164,37.80976],[-122.41176,37.80987],[-122.41171,37.80974],[-122.41188,37.81003],[-122.41178,37.80989],[-122.41172,37.80991],[-122.4118,37.81006],[-122.4117,37.80992],[-122.41171,37.81009],[-122.41163,37.80995],[-122.41156,37.80997],[-122.41163,37.81012],[-122.41149,37.81],[-122.41155,37.81015],[-122.41141,37.81003],[-122.41147,37.81017],[-122.41133,37.81006],[-122.41141,37.8102],[-122.41131,37.81006],[-122.41125,37.81009],[-122.41132,37.81023],[-122.41123,37.81009],[-122.41124,37.81026],[-122.41116,37.81012],[-122.41117,37.81028],[-122.41109,37.81014],[-122.41102,37.81017],[-122.41108,37.81031],[-122.411,37.81018],[-122.41091,37.8102],[-122.41132,37.81094],[-122.41124,37.81112],[-122.41068,37.81137],[-122.41042,37.81142],[-122.4102,37.81133],[-122.41003,37.81142],[-122.40857,37.81122],[-122.4086,37.81107],[-122.4086,37.8112],[-122.40868,37.81108],[-122.40868,37.81121],[-122.40876,37.81109],[-122.40876,37.81123],[-122.40884,37.8111],[-122.40884,37.81124],[-122.40892,37.81111],[-122.40892,37.81125],[-122.409,37.81112],[-122.40901,37.81126],[-122.40908,37.81113],[-122.40908,37.81127],[-122.40917,37.81114],[-122.40917,37.81128],[-122.40925,37.81116],[-122.40925,37.81129],[-122.40932,37.81117],[-122.40932,37.8113],[-122.40941,37.81118],[-122.40941,37.81132],[-122.40948,37.81119],[-122.40948,37.81133],[-122.40957,37.8112],[-122.40957,37.81134],[-122.40965,37.81121],[-122.40965,37.81135],[-122.40973,37.81122],[-122.40973,37.81136],[-122.40981,37.81123],[-122.40981,37.81137],[-122.40989,37.81125],[-122.40989,37.81138],[-122.40997,37.81126],[-122.41008,37.81135],[-122.41006,37.81124],[-122.41011,37.81135],[-122.41019,37.81132],[-122.41,37.811],[-122.41005,37.81087],[-122.40996,37.81086],[-122.40993,37.81099],[-122.40994,37.81087],[-122.40983,37.81098],[-122.40986,37.81085],[-122.40977,37.81083],[-122.40969,37.81096],[-122.4097,37.81083],[-122.40961,37.81095],[-122.40955,37.81081],[-122.40953,37.81094],[-122.40947,37.8108],[-122.40943,37.81092],[-122.40945,37.81079],[-122.40936,37.81077],[-122.40928,37.8109],[-122.40929,37.81077],[-122.40919,37.81089],[-122.40914,37.81075],[-122.40911,37.81088],[-122.40912,37.81075],[-122.40903,37.81087],[-122.40898,37.81073],[-122.40895,37.81086],[-122.40897,37.81073],[-122.40887,37.81084],[-122.40882,37.81071],[-122.40877,37.81083],[-122.4088,37.8107],[-122.4087,37.81082],[-122.40865,37.81068],[-122.40861,37.81081],[-122.40863,37.81068],[-122.40856,37.81066],[-122.40859,37.81051],[-122.40859,37.81065],[-122.40867,37.81052],[-122.40871,37.81067],[-122.40875,37.81053],[-122.40875,37.81067],[-122.40885,37.81055],[-122.40888,37.81069],[-122.40893,37.81056],[-122.40896,37.8107],[-122.40902,37.81057],[-122.409,37.81071],[-122.4091,37.81058],[-122.40908,37.81072],[-122.40916,37.81059],[-122.4092,37.81074],[-122.40924,37.8106],[-122.40924,37.81074],[-122.40934,37.81062],[-122.40937,37.81076],[-122.40942,37.81063],[-122.4094,37.81076],[-122.40949,37.81064],[-122.40949,37.81077],[-122.40957,37.81065],[-122.40957,37.81079],[-122.40965,37.81066],[-122.40969,37.8108],[-122.40975,37.81067],[-122.40977,37.81081],[-122.40981,37.81068],[-122.40986,37.81083],[-122.4099,37.81069],[-122.4099,37.81082],[-122.40999,37.81071],[-122.40996,37.81084],[-122.41005,37.81086],[-122.41018,37.8101],[-122.41008,37.80992],[-122.4083,37.80969],[-122.40822,37.80979],[-122.40826,37.80956],[-122.40827,37.80967],[-122.40833,37.80957],[-122.40832,37.80967],[-122.40838,37.80958],[-122.40838,37.80968],[-122.40844,37.80959],[-122.40843,37.80969],[-122.40849,37.80959],[-122.40848,37.80969],[-122.40854,37.8096],[-122.40854,37.8097],[-122.4086,37.80961],[-122.40859,37.80971],[-122.40866,37.80962],[-122.40866,37.80972],[-122.4087,37.80962],[-122.4087,37.80972],[-122.40876,37.80963],[-122.40876,37.80973],[-122.40882,37.80964],[-122.40881,37.80974],[-122.40888,37.80965],[-122.40887,37.80974],[-122.40893,37.80965],[-122.40893,37.80975],[-122.40899,37.80966],[-122.40898,37.80976],[-122.40904,37.80967],[-122.40904,37.80977],[-122.40909,37.80967],[-122.40909,37.80977],[-122.40915,37.80968],[-122.40914,37.80978],[-122.4092,37.80969],[-122.4092,37.80979],[-122.40926,37.8097],[-122.40925,37.80979],[-122.40931,37.8097],[-122.4093,37.8098],[-122.40937,37.80971],[-122.40936,37.80981],[-122.40942,37.80972],[-122.40941,37.80982],[-122.40947,37.80972],[-122.40947,37.80982],[-122.40953,37.80973],[-122.40952,37.80983],[-122.40959,37.80974],[-122.40958,37.80984],[-122.40964,37.80975],[-122.40965,37.80985],[-122.40969,37.80975],[-122.40968,37.80985],[-122.40975,37.80976],[-122.40974,37.80986],[-122.4098,37.80977],[-122.40979,37.80986],[-122.40986,37.80977],[-122.40985,37.80987],[-122.4099,37.80978],[-122.41006,37.80989],[-122.40965,37.80909],[-122.40787,37.80885],[-122.40789,37.80874],[-122.4079,37.80884],[-122.40797,37.80875],[-122.40795,37.80885],[-122.40802,37.80875],[-122.408,37.80885],[-122.40807,37.80876],[-122.40806,37.80886],[-122.40813,37.80877],[-122.40812,37.80887],[-122.40818,37.80878],[-122.40817,37.80888],[-122.40823,37.80878],[-122.40822,37.80888],[-122.40829,37.80879],[-122.40828,37.80889],[-122.40835,37.8088],[-122.40833,37.8089],[-122.4084,37.80881],[-122.40839,37.80891],[-122.40846,37.80881],[-122.40845,37.80891],[-122.40851,37.80882],[-122.4085,37.80892],[-122.40856,37.80883],[-122.40855,37.80893],[-122.40862,37.80884],[-122.40861,37.80894],[-122.40868,37.80884],[-122.40867,37.80894],[-122.40873,37.80885],[-122.40873,37.80895],[-122.40878,37.80886],[-122.40877,37.80896],[-122.40883,37.80887],[-122.40882,37.80897],[-122.40889,37.80887],[-122.40888,37.80897],[-122.40894,37.80888],[-122.40893,37.80898],[-122.409,37.80889],[-122.40899,37.80899],[-122.40905,37.80889],[-122.40904,37.809],[-122.40911,37.8089],[-122.4091,37.809],[-122.40917,37.80891],[-122.40915,37.80901],[-122.40922,37.80892],[-122.40921,37.80902],[-122.40927,37.80892],[-122.40926,37.80902],[-122.40933,37.80893],[-122.40931,37.80903],[-122.40938,37.80894],[-122.40937,37.80904],[-122.40942,37.80895],[-122.40956,37.80905],[-122.40939,37.80872],[-122.40926,37.80877],[-122.40929,37.80868],[-122.40921,37.80875],[-122.40923,37.80867],[-122.40886,37.80855],[-122.40875,37.80864],[-122.40876,37.80852],[-122.40868,37.80862],[-122.40869,37.8085],[-122.40861,37.8086],[-122.40862,37.80848],[-122.40855,37.80858],[-122.40855,37.80846],[-122.40848,37.80857],[-122.40848,37.80844],[-122.40842,37.80855],[-122.4084,37.80842],[-122.40833,37.80853],[-122.40833,37.8084],[-122.40825,37.80851],[-122.40833,37.80836],[-122.40823,37.80828],[-122.40807,37.80847],[-122.40817,37.80826],[-122.40805,37.8082],[-122.40789,37.80842],[-122.408,37.80819],[-122.40791,37.80815],[-122.40779,37.80839],[-122.40787,37.80821],[-122.40791,37.80811],[-122.40786,37.80809],[-122.40787,37.80821]]]}},{"type":"Feature","properties":{"name":"Noe Valley"},"geometry":{"type":"Polygon","coordinates":[[[-122.42305,37.75527],[-122.42304,37.75518],[-122.42144,37.75527],[-122.4216,37.75205],[-122.42128,37.74885],[-122.42239,37.74878],[-122.42202,37.74524],[-122.42312,37.74222],[-122.43195,37.74167],[-122.43354,37.74167],[-122.43395,37.7415],[-122.43444,37.74157],[-122.4352,37.7426],[-122.43551,37.74259],[-122.43533,37.74156],[-122.43582,37.74156],[-122.43609,37.74212],[-122.43663,37.74272],[-122.43974,37.74468],[-122.4402,37.74518],[-122.44034,37.74588],[-122.44032,37.74673],[-122.44068,37.74704],[-122.4413,37.74707],[-122.44324,37.74646],[-122.44356,37.74645],[-122.44496,37.74711],[-122.44398,37.74738],[-122.44383,37.74773],[-122.44391,37.74822],[-122.44384,37.74849],[-122.44332,37.74919],[-122.44312,37.75047],[-122.44262,37.75244],[-122.44273,37.75256],[-122.44221,37.7541],[-122.42305,37.75527]]]}},{"type":"Feature","properties":{"name":"Corona Heights"},"geometry":{"type":"Polygon","coordinates":[[[-122.43705,37.76715],[-122.43565,37.76723],[-122.43573,37.76691],[-122.43532,37.76261],[-122.43624,37.76214],[-122.43836,37.7617],[-122.44007,37.76118],[-122.44098,37.76108],[-122.44246,37.76111],[-122.44422,37.7601],[-122.44487,37.75959],[-122.44499,37.7591],[-122.44457,37.75833],[-122.44491,37.75833],[-122.44578,37.7587],[-122.4464,37.75886],[-122.4465,37.75938],[-122.44635,37.76032],[-122.44622,37.76033],[-122.44627,37.76105],[-122.44672,37.76189],[-122.44512,37.76197],[-122.44371,37.76323],[-122.44286,37.76335],[-122.44284,37.76411],[-122.44315,37.76473],[-122.44248,37.76527],[-122.44218,37.76538],[-122.44128,37.76535],[-122.43956,37.76665],[-122.43865,37.76684],[-122.43827,37.76683],[-122.43784,37.7667],[-122.43752,37.76674],[-122.43739,37.76695],[-122.43705,37.76715]]]}},{"type":"Feature","properties":{"name":"Buena Vista Park/Ashbury Heights"},"geometry":{"type":"Polygon","coordinates":[[[-122.43575,37.76926],[-122.43565,37.76723],[-122.43705,37.76715],[-122.43739,37.76695],[-122.43752,37.76674],[-122.43784,37.7667],[-122.43827,37.76683],[-122.43865,37.76684],[-122.43956,37.76665],[-122.44128,37.76535],[-122.44218,37.76538],[-122.44248,37.76527],[-122.44315,37.76473],[-122.44284,37.76411],[-122.44286,37.76335],[-122.44371,37.76323],[-122.44512,37.76197],[-122.44672,37.76189],[-122.44659,37.76169],[-122.44678,37.76178],[-122.44731,37.76426],[-122.44763,37.76514],[-122.44777,37.76522],[-122.44815,37.76708],[-122.44463,37.76753],[-122.44515,37.77014],[-122.43716,37.77116],[-122.43701,37.77042],[-122.43653,37.77021],[-122.43618,37.76993],[-122.43575,37.76926]]]}},{"type":"Feature","properties":{"name":"Lower Pacific Heights"},"geometry":{"type":"Polygon","coordinates":[[[-122.4234,37.78734],[-122.4252,37.78729],[-122.4248,37.78532],[-122.43785,37.78372],[-122.43933,37.78326],[-122.43964,37.78339],[-122.43962,37.78329],[-122.44583,37.78255],[-122.44586,37.78285],[-122.44601,37.78283],[-122.44688,37.78713],[-122.42395,37.79005],[-122.4234,37.78734]]]}},{"type":"Feature","properties":{"name":"Forest Knolls"},"geometry":{"type":"Polygon","coordinates":[[[-122.46374,37.7603],[-122.46279,37.75974],[-122.46039,37.75934],[-122.45962,37.75954],[-122.45974,37.75985],[-122.45967,37.75996],[-122.45917,37.76002],[-122.45893,37.76021],[-122.45902,37.76051],[-122.45858,37.76077],[-122.45744,37.76348],[-122.45564,37.76029],[-122.45248,37.7614],[-122.45217,37.75989],[-122.4521,37.75826],[-122.45318,37.75773],[-122.45385,37.75717],[-122.45412,37.75624],[-122.45483,37.75516],[-122.45511,37.75413],[-122.45571,37.75326],[-122.45584,37.75287],[-122.45589,37.75189],[-122.45615,37.75155],[-122.45658,37.75132],[-122.45728,37.75131],[-122.45918,37.75181],[-122.46067,37.75168],[-122.46145,37.75151],[-122.46328,37.75308],[-122.46364,37.75369],[-122.46368,37.75413],[-122.46343,37.7553],[-122.46374,37.7603]]]}},{"type":"Feature","properties":{"name":"Anza Vista"},"geometry":{"type":"Polygon","coordinates":[[[-122.44746,37.77986],[-122.44735,37.78015],[-122.44754,37.78151],[-122.4473,37.78239],[-122.43962,37.78329],[-122.43891,37.77978],[-122.44723,37.77872],[-122.44746,37.77986]]]}},{"type":"Feature","properties":{"name":"Lone Mountain"},"geometry":{"type":"Polygon","coordinates":[[[-122.44663,37.77569],[-122.45854,37.77417],[-122.45906,37.78143],[-122.45568,37.78158],[-122.44801,37.78257],[-122.44799,37.78247],[-122.4473,37.78239],[-122.44754,37.78151],[-122.44735,37.78015],[-122.44746,37.77986],[-122.44663,37.77569]]]}},{"type":"Feature","properties":{"name":"Eureka Valley / Dolores Heights"},"geometry":{"type":"Polygon","coordinates":[[[-122.42874,37.76742],[-122.42792,37.75818],[-122.42142,37.75858],[-122.42143,37.75869],[-122.42127,37.7585],[-122.42096,37.75529],[-122.42304,37.75518],[-122.42305,37.75527],[-122.44221,37.7541],[-122.441,37.75622],[-122.44133,37.7565],[-122.44224,37.75675],[-122.44287,37.75763],[-122.44366,37.75822],[-122.44399,37.75815],[-122.44457,37.75833],[-122.44499,37.7591],[-122.44487,37.75959],[-122.44422,37.7601],[-122.44246,37.76111],[-122.44098,37.76108],[-122.44007,37.76118],[-122.43836,37.7617],[-122.43624,37.76214],[-122.43531,37.76256],[-122.43307,37.7642],[-122.42895,37.7675],[-122.42874,37.76742]]]}},{"type":"Feature","properties":{"name":"Tenderloin"},"geometry":{"type":"Polygon","coordinates":[[[-122.40895,37.78329],[-122.41147,37.7813],[-122.41851,37.78042],[-122.41943,37.78497],[-122.40968,37.7862],[-122.40914,37.78352],[-122.40895,37.78329]]]}},{"type":"Feature","properties":{"name":"Inner Mission"},"geometry":{"type":"Polygon","coordinates":[[[-122.4183,37.74801],[-122.41841,37.7481],[-122.41917,37.74818],[-122.42231,37.74802],[-122.42239,37.74878],[-122.42128,37.74885],[-122.4216,37.75205],[-122.42152,37.75366],[-122.42144,37.75527],[-122.42096,37.75529],[-122.42127,37.7585],[-122.42143,37.75869],[-122.4226,37.77084],[-122.42228,37.77055],[-122.42123,37.77015],[-122.41553,37.76957],[-122.41121,37.76942],[-122.40785,37.76888],[-122.40707,37.76066],[-122.40638,37.7607],[-122.4063,37.75987],[-122.40591,37.75909],[-122.40546,37.75859],[-122.40405,37.75757],[-122.40342,37.75681],[-122.40319,37.75614],[-122.40287,37.75287],[-122.40309,37.75133],[-122.40375,37.74919],[-122.40476,37.74913],[-122.40826,37.74822],[-122.4183,37.74801]]]}},{"type":"Feature","properties":{"name":"Lake Street"},"geometry":{"type":"Polygon","coordinates":[[[-122.46364,37.78871],[-122.46351,37.78684],[-122.45946,37.78702],[-122.45936,37.78567],[-122.46563,37.78485],[-122.46562,37.78465],[-122.48727,37.78367],[-122.48754,37.7874],[-122.48467,37.78753],[-122.48464,37.78738],[-122.48237,37.78709],[-122.48217,37.78724],[-122.48147,37.78723],[-122.48092,37.78702],[-122.48043,37.78709],[-122.47986,37.78696],[-122.47878,37.787],[-122.47805,37.78685],[-122.47729,37.78703],[-122.47675,37.78685],[-122.47454,37.78679],[-122.47456,37.78695],[-122.471,37.78765],[-122.47101,37.78724],[-122.46364,37.78871]]]}},{"type":"Feature","properties":{"name":"Cole Valley/ Parnassus Heights"},"geometry":{"type":"Polygon","coordinates":[[[-122.44945,37.76873],[-122.44907,37.76687],[-122.44813,37.76699],[-122.44777,37.76522],[-122.44763,37.76514],[-122.44731,37.76426],[-122.44678,37.76178],[-122.44659,37.76169],[-122.44627,37.76101],[-122.44896,37.76085],[-122.44882,37.76014],[-122.44867,37.76015],[-122.44858,37.75965],[-122.45215,37.75942],[-122.45248,37.7614],[-122.45564,37.76029],[-122.45744,37.76348],[-122.45764,37.76608],[-122.45677,37.76598],[-122.45308,37.76645],[-122.45346,37.76829],[-122.453,37.76828],[-122.44945,37.76873]]]}},{"type":"Feature","properties":{"name":"Inner Sunset"},"geometry":{"type":"Polygon","coordinates":[[[-122.47334,37.75546],[-122.47312,37.7524],[-122.47646,37.75226],[-122.47749,37.76554],[-122.45859,37.76637],[-122.45764,37.76608],[-122.45744,37.76348],[-122.45858,37.76077],[-122.45902,37.76051],[-122.45893,37.76021],[-122.45917,37.76002],[-122.45967,37.75996],[-122.45974,37.75985],[-122.45962,37.75954],[-122.46039,37.75934],[-122.46279,37.75974],[-122.46378,37.7603],[-122.46343,37.7553],[-122.46368,37.75413],[-122.46364,37.75369],[-122.46328,37.75308],[-122.46303,37.75285],[-122.46755,37.75265],[-122.46769,37.75474],[-122.46844,37.75511],[-122.46989,37.75548],[-122.47009,37.75837],[-122.47072,37.75836],[-122.47144,37.75891],[-122.47209,37.75914],[-122.47253,37.75922],[-122.47293,37.75899],[-122.47312,37.75875],[-122.47282,37.75827],[-122.47302,37.75754],[-122.47357,37.75676],[-122.47373,37.75637],[-122.47372,37.75613],[-122.47334,37.75546]]]}},{"type":"Feature","properties":{"name":"Stonestown"},"geometry":{"type":"Polygon","coordinates":[[[-122.47498,37.73031],[-122.47546,37.72046],[-122.47513,37.71954],[-122.4729,37.71711],[-122.47177,37.71403],[-122.47141,37.71183],[-122.47214,37.71245],[-122.4727,37.71275],[-122.47347,37.71295],[-122.47546,37.71396],[-122.47627,37.71426],[-122.47736,37.71436],[-122.48502,37.71454],[-122.48491,37.71692],[-122.48489,37.72351],[-122.48475,37.72433],[-122.48378,37.72661],[-122.48367,37.72731],[-122.48437,37.72818],[-122.48564,37.72939],[-122.48655,37.72959],[-122.47829,37.73014],[-122.47594,37.73012],[-122.47498,37.73031]]]}},{"type":"Feature","properties":{"name":"Hayes Valley"},"geometry":{"type":"Polygon","coordinates":[[[-122.42609,37.76976],[-122.43571,37.76917],[-122.43618,37.76993],[-122.43653,37.77021],[-122.43701,37.77042],[-122.43774,37.77404],[-122.42948,37.7751],[-122.43005,37.77789],[-122.42985,37.77792],[-122.43005,37.77885],[-122.42189,37.77989],[-122.4207,37.77401],[-122.42609,37.76976]]]}},{"type":"Feature","properties":{"name":"Central Richmond"},"geometry":{"type":"Polygon","coordinates":[[[-122.49168,37.77212],[-122.4925,37.78343],[-122.47258,37.78434],[-122.47176,37.77303],[-122.49168,37.77212]]]}},{"type":"Feature","properties":{"name":"Pacific Heights"},"geometry":{"type":"Polygon","coordinates":[[[-122.42358,37.79764],[-122.42209,37.79028],[-122.44688,37.78713],[-122.44784,37.79189],[-122.44647,37.79214],[-122.4468,37.79424],[-122.44666,37.79425],[-122.44673,37.79471],[-122.42358,37.79764]]]}},{"type":"Feature","properties":{"name":"Jordan Park / Laurel Heights"},"geometry":{"type":"Polygon","coordinates":[[[-122.44688,37.78713],[-122.44601,37.78283],[-122.44586,37.78285],[-122.44583,37.78255],[-122.4473,37.78239],[-122.44799,37.78247],[-122.44801,37.78257],[-122.45568,37.78158],[-122.45906,37.78143],[-122.45935,37.78554],[-122.44688,37.78713]]]}},{"type":"Feature","properties":{"name":"Mission Dolores"},"geometry":{"type":"Polygon","coordinates":[[[-122.4226,37.77084],[-122.42142,37.75858],[-122.42792,37.75818],[-122.42874,37.76742],[-122.42895,37.7675],[-122.4234,37.77189],[-122.42325,37.77177],[-122.42298,37.77124],[-122.4226,37.77084]]]}},{"type":"Feature","properties":{"name":"North Panhandle"},"geometry":{"type":"Polygon","coordinates":[[[-122.43774,37.77404],[-122.45419,37.77194],[-122.45474,37.77466],[-122.44663,37.77569],[-122.44723,37.77872],[-122.43891,37.77978],[-122.43774,37.77404]]]}},{"type":"Feature","properties":{"name":"Cow Hollow"},"geometry":{"type":"Polygon","coordinates":[[[-122.44782,37.80086],[-122.44483,37.79884],[-122.44432,37.79879],[-122.42432,37.80135],[-122.42358,37.79764],[-122.44673,37.79471],[-122.44666,37.79425],[-122.44712,37.79424],[-122.44714,37.79501],[-122.44692,37.79501],[-122.44782,37.80086]]]}},{"type":"Feature","properties":{"name":"Duboce Triangle"},"geometry":{"type":"Polygon","coordinates":[[[-122.42607,37.76976],[-122.43307,37.7642],[-122.43531,37.76256],[-122.43573,37.76691],[-122.43562,37.76733],[-122.43575,37.76926],[-122.43571,37.76917],[-122.42607,37.76976]]]}},{"type":"Feature","properties":{"name":"Inner Richmond"},"geometry":{"type":"Polygon","coordinates":[[[-122.46524,37.77333],[-122.47176,37.77303],[-122.47258,37.78434],[-122.46562,37.78465],[-122.46563,37.78485],[-122.45936,37.78567],[-122.45854,37.77417],[-122.46524,37.77333]]]}},{"type":"Feature","properties":{"name":"Haight Ashbury"},"geometry":{"type":"Polygon","coordinates":[[[-122.45401,37.77102],[-122.44074,37.77271],[-122.44092,37.77364],[-122.43774,37.77404],[-122.43716,37.77116],[-122.44515,37.77014],[-122.44463,37.76753],[-122.44815,37.76708],[-122.44813,37.76699],[-122.44907,37.76687],[-122.44945,37.76873],[-122.453,37.76828],[-122.45346,37.76829],[-122.45401,37.77102]]]}},{"type":"Feature","properties":{"name":"Marina"},"geometry":{"type":"Polygon","coordinates":[[[-122.44432,37.79879],[-122.44483,37.79884],[-122.44713,37.80039],[-122.44761,37.80032],[-122.44776,37.8005],[-122.44789,37.80136],[-122.44833,37.80142],[-122.44903,37.80169],[-122.44962,37.80225],[-122.44982,37.80268],[-122.44985,37.80314],[-122.44972,37.80361],[-122.44949,37.80395],[-122.44907,37.80431],[-122.4484,37.80459],[-122.44873,37.8067],[-122.44829,37.80682],[-122.44718,37.80748],[-122.44368,37.80772],[-122.44263,37.808],[-122.44053,37.80836],[-122.44003,37.80883],[-122.43993,37.80878],[-122.44029,37.80822],[-122.44046,37.80814],[-122.44025,37.80702],[-122.43575,37.80756],[-122.43556,37.80691],[-122.43416,37.80697],[-122.43383,37.80578],[-122.43234,37.80598],[-122.43222,37.80537],[-122.43205,37.80512],[-122.43168,37.80327],[-122.42511,37.80415],[-122.42454,37.8013],[-122.44432,37.79879]]]}},{"type":"Feature","properties":{"name":"Twin Peaks"},"geometry":{"type":"Polygon","coordinates":[[[-122.44456,37.75833],[-122.44399,37.75815],[-122.44366,37.75822],[-122.44287,37.75763],[-122.44224,37.75675],[-122.44133,37.7565],[-122.441,37.75622],[-122.44221,37.7541],[-122.4425,37.75331],[-122.44273,37.75256],[-122.44262,37.75244],[-122.44312,37.75047],[-122.44332,37.74919],[-122.44384,37.74849],[-122.44391,37.74822],[-122.44383,37.74773],[-122.44398,37.74738],[-122.44496,37.74711],[-122.44512,37.74846],[-122.44542,37.74921],[-122.44713,37.75007],[-122.44788,37.75029],[-122.44816,37.75029],[-122.44897,37.74931],[-122.44924,37.74915],[-122.44946,37.74918],[-122.44962,37.74943],[-122.44961,37.74982],[-122.44918,37.75058],[-122.44859,37.75103],[-122.44841,37.75163],[-122.44821,37.75196],[-122.44767,37.75228],[-122.44672,37.75339],[-122.44687,37.75376],[-122.44732,37.75415],[-122.4477,37.75498],[-122.44788,37.75569],[-122.44766,37.75582],[-122.44705,37.7554],[-122.44647,37.75531],[-122.44533,37.75558],[-122.44519,37.7557],[-122.44518,37.75587],[-122.44534,37.756],[-122.44623,37.75591],[-122.44672,37.75632],[-122.44701,37.75684],[-122.44778,37.7568],[-122.44792,37.75759],[-122.44813,37.7578],[-122.4471,37.75736],[-122.44626,37.75686],[-122.44496,37.75727],[-122.44464,37.75792],[-122.44456,37.75833]]]}},{"type":"Feature","properties":{"name":"Financial District/Barbary Coast"},"geometry":{"type":"Polygon","coordinates":[[[-122.39307,37.79572],[-122.39447,37.79495],[-122.39481,37.79468],[-122.39475,37.79448],[-122.40343,37.78764],[-122.40366,37.78889],[-122.40688,37.78843],[-122.40876,37.79772],[-122.39708,37.79921],[-122.39675,37.79883],[-122.39658,37.79883],[-122.39447,37.80005],[-122.39444,37.80018],[-122.39424,37.79999],[-122.39442,37.8],[-122.39614,37.79901],[-122.39653,37.79878],[-122.39658,37.79865],[-122.3959,37.79787],[-122.39553,37.79796],[-122.39381,37.79894],[-122.39356,37.79863],[-122.39549,37.79748],[-122.39531,37.79739],[-122.39513,37.79749],[-122.395,37.79734],[-122.3952,37.79717],[-122.39502,37.79712],[-122.39318,37.79825],[-122.39293,37.79795],[-122.39479,37.79671],[-122.39468,37.79659],[-122.39313,37.79747],[-122.39413,37.79686],[-122.39374,37.79657],[-122.39388,37.79651],[-122.39307,37.79572]]]}},{"type":"Feature","properties":{"name":"Nob Hill"},"geometry":{"type":"Polygon","coordinates":[[[-122.40876,37.79772],[-122.40762,37.79212],[-122.42209,37.79028],[-122.42322,37.79587],[-122.40876,37.79772]]]}},{"type":"Feature","properties":{"name":"North Beach"},"geometry":{"type":"Polygon","coordinates":[[[-122.41729,37.80507],[-122.41042,37.80592],[-122.40876,37.79772],[-122.41205,37.7973],[-122.41301,37.80211],[-122.41729,37.80507]]]}},{"type":"Feature","properties":{"name":"Downtown"},"geometry":{"type":"Polygon","coordinates":[[[-122.40343,37.78764],[-122.40895,37.78329],[-122.40914,37.78352],[-122.40968,37.7862],[-122.41943,37.78497],[-122.42055,37.79048],[-122.40762,37.79212],[-122.40688,37.78843],[-122.40366,37.78889],[-122.40343,37.78764]]]}},{"type":"Feature","properties":{"name":"Telegraph Hill"},"geometry":{"type":"Polygon","coordinates":[[[-122.41042,37.80592],[-122.4072,37.80632],[-122.40668,37.80371],[-122.40348,37.80412],[-122.40237,37.79854],[-122.40876,37.79772],[-122.41042,37.80592]]]}},{"type":"Feature","properties":{"name":"Alamo Square"},"geometry":{"type":"Polygon","coordinates":[[[-122.42948,37.7751],[-122.43774,37.77404],[-122.43867,37.77862],[-122.43346,37.77928],[-122.4331,37.77751],[-122.43005,37.77789],[-122.42948,37.7751]]]}},{"type":"Feature","properties":{"name":"Russian Hill"},"geometry":{"type":"Polygon","coordinates":[[[-122.42169,37.80795],[-122.42154,37.80749],[-122.42092,37.80757],[-122.42071,37.80742],[-122.42056,37.80666],[-122.41975,37.80676],[-122.41301,37.80211],[-122.41205,37.7973],[-122.42322,37.79587],[-122.42527,37.80603],[-122.4257,37.80598],[-122.42582,37.80656],[-122.42648,37.80736],[-122.42674,37.80814],[-122.42683,37.8089],[-122.42676,37.80939],[-122.42641,37.81006],[-122.42593,37.81049],[-122.42503,37.81078],[-122.42457,37.81076],[-122.42433,37.81063],[-122.42431,37.8105],[-122.42446,37.8104],[-122.42485,37.81063],[-122.42542,37.81053],[-122.42591,37.81029],[-122.42646,37.80963],[-122.42662,37.80897],[-122.42654,37.80829],[-122.4263,37.80754],[-122.42612,37.80764],[-122.42595,37.80754],[-122.42604,37.80769],[-122.42579,37.80741],[-122.42593,37.80752],[-122.42614,37.80736],[-122.42574,37.80707],[-122.42483,37.80669],[-122.42422,37.8066],[-122.42372,37.80667],[-122.4228,37.80713],[-122.42169,37.80795]],[[-122.42455,37.81059],[-122.42448,37.81055],[-122.42447,37.81059],[-122.42455,37.81059]]]}},{"type":"Feature","properties":{"name":"Treasure Island"},"geometry":{"type":"Polygon","coordinates":[[[-122.36745,37.82947],[-122.36722,37.82954],[-122.36724,37.82988],[-122.36712,37.82989],[-122.36697,37.82956],[-122.36681,37.82964],[-122.36687,37.82997],[-122.36672,37.82997],[-122.36663,37.8297],[-122.36626,37.82982],[-122.36667,37.8307],[-122.36648,37.83083],[-122.36548,37.82903],[-122.36589,37.82892],[-122.36624,37.82948],[-122.36646,37.82939],[-122.36636,37.82908],[-122.36657,37.82904],[-122.36667,37.82935],[-122.36691,37.82924],[-122.36685,37.82897],[-122.36695,37.8289],[-122.36703,37.82921],[-122.36716,37.82919],[-122.36708,37.82863],[-122.36298,37.82253],[-122.3631,37.82198],[-122.36185,37.82152],[-122.36197,37.82118],[-122.36335,37.82154],[-122.36349,37.8211],[-122.36211,37.8208],[-122.3622,37.82056],[-122.36358,37.82089],[-122.36378,37.8204],[-122.36237,37.82009],[-122.36246,37.81985],[-122.36402,37.82008],[-122.36418,37.81973],[-122.36406,37.81898],[-122.36501,37.81848],[-122.36484,37.81827],[-122.36401,37.81872],[-122.364,37.81862],[-122.36472,37.81825],[-122.36452,37.81807],[-122.36468,37.81793],[-122.36528,37.81853],[-122.37108,37.81603],[-122.36768,37.81243],[-122.35918,37.81503],[-122.35858,37.81453],[-122.35928,37.81373],[-122.36088,37.81253],[-122.36058,37.81123],[-122.36138,37.81013],[-122.36238,37.80723],[-122.36738,37.80773],[-122.36788,37.80793],[-122.3728,37.8111],[-122.37218,37.81163],[-122.37168,37.81513],[-122.37938,37.82683],[-122.37818,37.83043],[-122.37328,37.83243],[-122.36878,37.83123],[-122.36748,37.83013],[-122.36745,37.82947]]]}}]}